{
  "type": "FeatureCollection",
  "generator": "overpass-ide",
  "copyright": "The data included in this document is from www.openstreetmap.org. The data is made available under ODbL.",
  "timestamp": "2022-11-20T17:02:24Z",
  "features": [
    {
      "type": "Feature",
      "properties": {
        "@id": "way/26918589",
        "addr:city": "Heidelberg",
        "addr:country": "DE",
        "addr:housenumber": "78",
        "addr:postcode": "69123",
        "addr:street": "Eppelheimer Straße",
        "brand": "Kaufland",
        "brand:wikidata": "Q685967",
        "brand:wikipedia": "en:Kaufland",
        "building": "yes",
        "name": "Kaufland",
        "shop": "supermarket",
        "wheelchair": "yes"
      },
      "geometry": {
        "type": "Polygon",
        "coordinates": [
          [
            [
              8.6455134,
              49.4045827
            ],
            [
              8.6455724,
              49.4043915
            ],
            [
              8.6455322,
              49.4043846
            ],
            [
              8.6456851,
              49.4037964
            ],
            [
              8.6456609,
              49.4037702
            ],
            [
              8.6456502,
              49.4037196
            ],
            [
              8.6457548,
              49.4037318
            ],
            [
              8.6457977,
              49.4035922
            ],
            [
              8.6458394,
              49.4035977
            ],
            [
              8.646766,
              49.4037213
            ],
            [
              8.6467365,
              49.4038365
            ],
            [
              8.6467658,
              49.4038429
            ],
            [
              8.6467204,
              49.4039971
            ],
            [
              8.6468411,
              49.4040145
            ],
            [
              8.6467633,
              49.4042519
            ],
            [
              8.6466802,
              49.4042414
            ],
            [
              8.6466742,
              49.4042768
            ],
            [
              8.64653,
              49.4047092
            ],
            [
              8.6455992,
              49.4045931
            ],
            [
              8.6455134,
              49.4045827
            ]
          ]
        ]
      },
      "id": "way/26918589"
    },
    {
      "type": "Feature",
      "properties": {
        "@id": "way/27930479",
        "addr:housenumber": "21",
        "addr:street": "Fritz-Frey-Straße",
        "building": "retail",
        "building:levels": "1",
        "name": "Lidl",
        "opening_hours": "Mo-Sa 07:00-21:00",
        "roof:levels": "0",
        "shop": "supermarket",
        "toilets:wheelchair": "no",
        "wheelchair": "yes"
      },
      "geometry": {
        "type": "Polygon",
        "coordinates": [
          [
            [
              8.6792277,
              49.4370346
            ],
            [
              8.679301,
              49.4367559
            ],
            [
              8.6797097,
              49.4368014
            ],
            [
              8.679676,
              49.4369294
            ],
            [
              8.6796283,
              49.436924
            ],
            [
              8.679623,
              49.4369444
            ],
            [
              8.679583,
              49.4370964
            ],
            [
              8.6796529,
              49.4371042
            ],
            [
              8.6796181,
              49.4372365
            ],
            [
              8.6792704,
              49.4371978
            ],
            [
              8.6793109,
              49.4370439
            ],
            [
              8.6792277,
              49.4370346
            ]
          ]
        ]
      },
      "id": "way/27930479"
    },
    {
      "type": "Feature",
      "properties": {
        "@id": "way/27930484",
        "addr:city": "Heidelberg",
        "addr:country": "DE",
        "addr:housenumber": "17",
        "addr:street": "Fritz-Frey-Straße",
        "brand": "ALDI Süd",
        "brand:wikidata": "Q41171672",
        "brand:wikipedia": "en:Aldi",
        "building": "retail",
        "building:levels": "1",
        "check_date:opening_hours": "2022-07-04",
        "man_made": "surveillance",
        "name": "ALDI Süd",
        "opening_hours": "Fr,Sa 08:00-21:00; Mo-Th 08:00-20:00",
        "roof:levels": "0",
        "shop": "supermarket",
        "surveillance": "indoor",
        "toilets:wheelchair": "no",
        "wheelchair": "yes"
      },
      "geometry": {
        "type": "Polygon",
        "coordinates": [
          [
            [
              8.6794868,
              49.4363523
            ],
            [
              8.6802038,
              49.4364325
            ],
            [
              8.6802497,
              49.4364376
            ],
            [
              8.6802439,
              49.4364595
            ],
            [
              8.6802,
              49.4366254
            ],
            [
              8.6801904,
              49.4366617
            ],
            [
              8.6793457,
              49.4365673
            ],
            [
              8.679374,
              49.4364603
            ],
            [
              8.6794559,
              49.4364695
            ],
            [
              8.6794868,
              49.4363523
            ]
          ]
        ]
      },
      "id": "way/27930484"
    },
    {
      "type": "Feature",
      "properties": {
        "@id": "way/32573923",
        "addr:city": "Heidelberg",
        "addr:country": "DE",
        "addr:housenumber": "98",
        "addr:postcode": "69126",
        "addr:street": "Heinrich-Fuchs-Straße",
        "brand": "Lidl",
        "brand:wikidata": "Q151954",
        "brand:wikipedia": "en:Lidl",
        "building": "retail",
        "building:levels": "1",
        "name": "Lidl",
        "opening_hours": "Mo-Sa 07:00-21:00",
        "payment:cash": "yes",
        "payment:contactless": "yes",
        "payment:credit_cards": "yes",
        "payment:maestro": "yes",
        "roof:levels": "0",
        "roof:shape": "gabled",
        "shop": "supermarket",
        "wheelchair": "yes"
      },
      "geometry": {
        "type": "Polygon",
        "coordinates": [
          [
            [
              8.6781257,
              49.3801867
            ],
            [
              8.6781252,
              49.380138
            ],
            [
              8.6781228,
              49.3799303
            ],
            [
              8.6781875,
              49.37993
            ],
            [
              8.678184,
              49.3796272
            ],
            [
              8.6784292,
              49.379626
            ],
            [
              8.6784284,
              49.3795532
            ],
            [
              8.6785409,
              49.3795527
            ],
            [
              8.678548,
              49.3801847
            ],
            [
              8.6781257,
              49.3801867
            ]
          ]
        ]
      },
      "id": "way/32573923"
    },
    {
      "type": "Feature",
      "properties": {
        "@id": "way/87318300",
        "building": "industrial",
        "building:levels": "1",
        "name": "imo autopflege-center",
        "opening_hours": "Mo-Fr 08:00-18:45; Sa 08:00-17:45",
        "shop": "car_repair"
      },
      "geometry": {
        "type": "Polygon",
        "coordinates": [
          [
            [
              8.6828891,
              49.4331515
            ],
            [
              8.6829073,
              49.4330587
            ],
            [
              8.6829164,
              49.4330235
            ],
            [
              8.6832103,
              49.4330548
            ],
            [
              8.6832025,
              49.4330947
            ],
            [
              8.6833657,
              49.4331198
            ],
            [
              8.6834109,
              49.4331075
            ],
            [
              8.6834889,
              49.4331407
            ],
            [
              8.6834848,
              49.4331565
            ],
            [
              8.6835224,
              49.4331601
            ],
            [
              8.6835092,
              49.4332128
            ],
            [
              8.6834421,
              49.433205
            ],
            [
              8.683196,
              49.4331799
            ],
            [
              8.6831094,
              49.433171
            ],
            [
              8.6829935,
              49.433161
            ],
            [
              8.6828891,
              49.4331515
            ]
          ]
        ]
      },
      "id": "way/87318300"
    },
    {
      "type": "Feature",
      "properties": {
        "@id": "way/90065299",
        "addr:city": "Heidelberg",
        "addr:country": "DE",
        "addr:housenumber": "26",
        "addr:postcode": "69124",
        "addr:street": "Breslauer Straße",
        "brand": "Nahkauf",
        "brand:wikidata": "Q57515238",
        "building": "retail",
        "building:levels": "1",
        "check_date:opening_hours": "2022-05-15",
        "name": "Nahkauf",
        "old_name": "Nah und gut",
        "opening_hours": "Mo-Sa 07:00-21:00",
        "opening_hours:covid19": "same",
        "operator": "aqb-Arbeit u. Qualif. f. Menschen m. Beh",
        "roof:levels": "0",
        "roof:shape": "flat",
        "shop": "supermarket",
        "website": "https://nahkauf.de/maerkte/heidelberg-45611099-aqb-arbeit-u-qualif-f-menschen-m-beh-breslauer-strasse-26",
        "wheelchair": "yes"
      },
      "geometry": {
        "type": "Polygon",
        "coordinates": [
          [
            [
              8.6665403,
              49.3841192
            ],
            [
              8.6664439,
              49.3841141
            ],
            [
              8.6664023,
              49.3841425
            ],
            [
              8.6662298,
              49.3841317
            ],
            [
              8.6662489,
              49.3839952
            ],
            [
              8.6661719,
              49.3839912
            ],
            [
              8.6661919,
              49.3838534
            ],
            [
              8.6663443,
              49.3838656
            ],
            [
              8.6663518,
              49.3838172
            ],
            [
              8.6665788,
              49.3838356
            ],
            [
              8.6665403,
              49.3841192
            ]
          ]
        ]
      },
      "id": "way/90065299"
    },
    {
      "type": "Feature",
      "properties": {
        "@id": "way/93880415",
        "addr:city": "Heidelberg",
        "addr:country": "DE",
        "addr:housenumber": "14",
        "addr:postcode": "69126",
        "addr:street": "Englerstraße",
        "building": "yes",
        "name": "Auto Sarwar",
        "operator": "Sarwar Ahmad Sindhu",
        "phone": "+49 176 22392601",
        "shop": "car_repair",
        "website": "https://www.auto-sarwar.de/"
      },
      "geometry": {
        "type": "Polygon",
        "coordinates": [
          [
            [
              8.6800974,
              49.366989
            ],
            [
              8.6803103,
              49.3669942
            ],
            [
              8.6803046,
              49.3671045
            ],
            [
              8.6800879,
              49.3670997
            ],
            [
              8.6800974,
              49.366989
            ]
          ]
        ]
      },
      "id": "way/93880415"
    },
    {
      "type": "Feature",
      "properties": {
        "@id": "way/93880877",
        "addr:city": "Heidelberg",
        "addr:housenumber": "25",
        "addr:postcode": "69126",
        "addr:street": "Freiburger Straße",
        "brand": "Netto Marken-Discount",
        "brand:wikidata": "Q879858",
        "building": "retail",
        "name": "Netto Marken-Discount",
        "opening_hours": "Mo-Sa 07:00-21:00",
        "shop": "supermarket",
        "website": "https://www.netto-online.de/filialen/heidelberg/freiburger-strasse-25/8169",
        "wheelchair": "yes"
      },
      "geometry": {
        "type": "Polygon",
        "coordinates": [
          [
            [
              8.6798796,
              49.3733584
            ],
            [
              8.6799028,
              49.373038
            ],
            [
              8.6803023,
              49.3730503
            ],
            [
              8.680279,
              49.3733707
            ],
            [
              8.6800537,
              49.3733637
            ],
            [
              8.6798796,
              49.3733584
            ]
          ]
        ]
      },
      "id": "way/93880877"
    },
    {
      "type": "Feature",
      "properties": {
        "@id": "way/97281021",
        "addr:housenumber": "4",
        "addr:street": "Redtenbacherstraße",
        "building": "yes",
        "communication:mobile_phone": "yes",
        "name": "Penninger",
        "shop": "car_repair",
        "source:communication": "survey",
        "website": "https://www.auto-lackiererei.de"
      },
      "geometry": {
        "type": "Polygon",
        "coordinates": [
          [
            [
              8.681548,
              49.3645098
            ],
            [
              8.6813534,
              49.3645021
            ],
            [
              8.6813528,
              49.3645086
            ],
            [
              8.6814277,
              49.3645116
            ],
            [
              8.6814234,
              49.3645576
            ],
            [
              8.6812412,
              49.3645504
            ],
            [
              8.6812457,
              49.3645015
            ],
            [
              8.6807222,
              49.3644808
            ],
            [
              8.6807332,
              49.3643627
            ],
            [
              8.6808548,
              49.3643675
            ],
            [
              8.6808591,
              49.3643213
            ],
            [
              8.6815629,
              49.364349
            ],
            [
              8.681548,
              49.3645098
            ]
          ]
        ]
      },
      "id": "way/97281021"
    },
    {
      "type": "Feature",
      "properties": {
        "@id": "way/98234235",
        "addr:city": "Heidelberg",
        "addr:country": "DE",
        "addr:housenumber": "30/1",
        "addr:postcode": "69126",
        "addr:street": "Emmertsgrundpassage",
        "building": "yes",
        "name": "Hairstyle by Türkan",
        "shop": "hairdresser",
        "source:geometry": "HiRes aerial imagery",
        "wheelchair": "limited"
      },
      "geometry": {
        "type": "Polygon",
        "coordinates": [
          [
            [
              8.7046262,
              49.36585
            ],
            [
              8.70454,
              49.3658498
            ],
            [
              8.7044824,
              49.3658496
            ],
            [
              8.7044831,
              49.365728
            ],
            [
              8.7046269,
              49.3657284
            ],
            [
              8.7046268,
              49.365739
            ],
            [
              8.7046266,
              49.3657816
            ],
            [
              8.7046262,
              49.36585
            ]
          ]
        ]
      },
      "id": "way/98234235"
    },
    {
      "type": "Feature",
      "properties": {
        "@id": "way/101778353",
        "addr:city": "Heidelberg",
        "addr:housenumber": "17",
        "addr:postcode": "69123",
        "addr:street": "Grenzhöfer Weg",
        "addr:suburb": "Wieblingen",
        "brand": "REWE",
        "brand:wikidata": "Q16968817",
        "brand:wikipedia": "de:Rewe (Markt)",
        "building": "retail",
        "building:levels": "1",
        "contact:phone": "+49-6221-7963216",
        "name": "REWE",
        "opening_hours": "Mo-Sa 07:00-22:00",
        "roof:levels": "0",
        "roof:shape": "skillion",
        "shop": "supermarket",
        "website": "https://www.rewe.de/",
        "wheelchair": "yes"
      },
      "geometry": {
        "type": "Polygon",
        "coordinates": [
          [
            [
              8.6420067,
              49.4253105
            ],
            [
              8.6422306,
              49.4249307
            ],
            [
              8.6424302,
              49.424592
            ],
            [
              8.6425988,
              49.424634
            ],
            [
              8.6425315,
              49.4247483
            ],
            [
              8.642587,
              49.4247621
            ],
            [
              8.6426588,
              49.42478
            ],
            [
              8.6427298,
              49.4247977
            ],
            [
              8.6423737,
              49.425402
            ],
            [
              8.6420067,
              49.4253105
            ]
          ]
        ]
      },
      "id": "way/101778353"
    },
    {
      "type": "Feature",
      "properties": {
        "@id": "way/101815553",
        "addr:city": "Heidelberg",
        "addr:country": "DE",
        "addr:housenumber": "18",
        "addr:postcode": "69124",
        "addr:street": "Albert-Saur-Straße",
        "building": "yes",
        "name": "Salon Keibs",
        "shop": "hairdresser"
      },
      "geometry": {
        "type": "Polygon",
        "coordinates": [
          [
            [
              8.6636854,
              49.3785531
            ],
            [
              8.6636231,
              49.3786787
            ],
            [
              8.6634465,
              49.3786416
            ],
            [
              8.6635088,
              49.378516
            ],
            [
              8.6635344,
              49.3785214
            ],
            [
              8.6636854,
              49.3785531
            ]
          ]
        ]
      },
      "id": "way/101815553"
    },
    {
      "type": "Feature",
      "properties": {
        "@id": "way/122268653",
        "addr:city": "Heidelberg",
        "addr:housenumber": "3",
        "addr:postcode": "69115",
        "addr:street": "Carl-Benz-Straße",
        "brand": "Euromaster",
        "brand:wikidata": "Q3060668",
        "brand:wikipedia": "de:Euromaster",
        "building": "commercial",
        "name": "Euromaster",
        "shop": "car_repair"
      },
      "geometry": {
        "type": "Polygon",
        "coordinates": [
          [
            [
              8.6784114,
              49.3992742
            ],
            [
              8.6786829,
              49.3989601
            ],
            [
              8.6792045,
              49.3991509
            ],
            [
              8.678933,
              49.3994651
            ],
            [
              8.6784415,
              49.3992856
            ],
            [
              8.6784114,
              49.3992742
            ]
          ]
        ]
      },
      "id": "way/122268653"
    },
    {
      "type": "Feature",
      "properties": {
        "@id": "way/141457104",
        "addr:city": "Heidelberg",
        "addr:country": "DE",
        "addr:housename": "Salon Haarkiste",
        "addr:housenumber": "12",
        "addr:postcode": "69124",
        "addr:street": "Hegenichstraße",
        "building": "yes",
        "name": "Salon Haarkiste",
        "shop": "hairdresser",
        "source": "HiRes aerial imagery",
        "website": "http://www.haarkiste.com"
      },
      "geometry": {
        "type": "Polygon",
        "coordinates": [
          [
            [
              8.6674133,
              49.377429
            ],
            [
              8.6674193,
              49.3773268
            ],
            [
              8.6674218,
              49.3772881
            ],
            [
              8.6675607,
              49.3772931
            ],
            [
              8.6675524,
              49.3774318
            ],
            [
              8.6674133,
              49.377429
            ]
          ]
        ]
      },
      "id": "way/141457104"
    },
    {
      "type": "Feature",
      "properties": {
        "@id": "way/155290350",
        "addr:city": "Heidelberg",
        "addr:country": "DE",
        "addr:housenumber": "76-84",
        "addr:postcode": "69118",
        "addr:street": "Kleingemünder Straße",
        "brand": "ALDI Süd",
        "brand:wikidata": "Q41171672",
        "brand:wikipedia": "en:Aldi",
        "building": "supermarket",
        "name": "ALDI Süd",
        "opening_hours": "Mo-Sa 08:00-21:00",
        "shop": "supermarket",
        "wheelchair": "yes"
      },
      "geometry": {
        "type": "Polygon",
        "coordinates": [
          [
            [
              8.7750501,
              49.4136465
            ],
            [
              8.7751221,
              49.4136767
            ],
            [
              8.7753319,
              49.4134637
            ],
            [
              8.7754911,
              49.4135276
            ],
            [
              8.7756526,
              49.4135981
            ],
            [
              8.775191,
              49.414067
            ],
            [
              8.7748707,
              49.4139327
            ],
            [
              8.7750237,
              49.4137773
            ],
            [
              8.7749512,
              49.413747
            ],
            [
              8.7750501,
              49.4136465
            ]
          ]
        ]
      },
      "id": "way/155290350"
    },
    {
      "type": "Feature",
      "properties": {
        "@id": "way/160208961",
        "addr:housenumber": "47",
        "addr:street": "Brückenstraße",
        "brand": "Lidl",
        "brand:wikidata": "Q151954",
        "brand:wikipedia": "en:Lidl",
        "building": "apartments",
        "building:levels": "6",
        "name": "Lidl",
        "opening_hours": "Mo-Sa 08:00-21:00",
        "roof:levels": "0",
        "shop": "supermarket",
        "website": "https://www.lidl.de/filialen/heidelberg/neuenheim-brueckenstr-47.html",
        "wheelchair": "yes"
      },
      "geometry": {
        "type": "Polygon",
        "coordinates": [
          [
            [
              8.6919088,
              49.4164914
            ],
            [
              8.6919029,
              49.41667
            ],
            [
              8.6918992,
              49.4166924
            ],
            [
              8.6917582,
              49.4166901
            ],
            [
              8.6917432,
              49.4166898
            ],
            [
              8.6917437,
              49.4166816
            ],
            [
              8.6916943,
              49.4166803
            ],
            [
              8.6916784,
              49.4166799
            ],
            [
              8.6916793,
              49.4166654
            ],
            [
              8.6916804,
              49.416646
            ],
            [
              8.6916951,
              49.4166464
            ],
            [
              8.6916979,
              49.4166069
            ],
            [
              8.6916806,
              49.4166064
            ],
            [
              8.6916856,
              49.4165342
            ],
            [
              8.6917034,
              49.4165347
            ],
            [
              8.6917064,
              49.4164908
            ],
            [
              8.6917138,
              49.4164909
            ],
            [
              8.6917247,
              49.4164866
            ],
            [
              8.6917553,
              49.4164876
            ],
            [
              8.6919088,
              49.4164914
            ]
          ]
        ]
      },
      "id": "way/160208961"
    },
    {
      "type": "Feature",
      "properties": {
        "@id": "way/196924020",
        "addr:city": "Heidelberg",
        "addr:country": "DE",
        "addr:housenumber": "36",
        "addr:postcode": "69115",
        "addr:street": "Eppelheimer Straße",
        "alt_name": "Auto Teile Unger",
        "brand": "A.T.U",
        "brand:wikidata": "Q784721",
        "brand:wikipedia": "de:Auto-Teile-Unger",
        "building": "industrial",
        "name": "A.T.U",
        "opening_hours": "Mo-Fr 07:30-19:00; Sa 08:00-16:00",
        "operator": "A.T.U Auto-Teile-Unger GmbH & Co. KG",
        "service": "parts",
        "shop": "car_repair",
        "short_name": "ATU"
      },
      "geometry": {
        "type": "Polygon",
        "coordinates": [
          [
            [
              8.6602017,
              49.4065945
            ],
            [
              8.6601164,
              49.4063703
            ],
            [
              8.6607814,
              49.4062632
            ],
            [
              8.660825,
              49.4063777
            ],
            [
              8.6608183,
              49.406414
            ],
            [
              8.6607286,
              49.4064284
            ],
            [
              8.6607577,
              49.4065049
            ],
            [
              8.6602017,
              49.4065945
            ]
          ]
        ]
      },
      "id": "way/196924020"
    },
    {
      "type": "Feature",
      "properties": {
        "@id": "way/220997621",
        "addr:city": "Heidelberg",
        "addr:country": "DE",
        "addr:housenumber": "20",
        "addr:postcode": "69120",
        "addr:street": "Ladenburger Straße",
        "building": "apartments",
        "building:levels": "3",
        "name": "Prodotti Italiani",
        "opening_hours": "Mo-Th 09:30-13:00,15:00-18:00; Fr 09:30-18:00; Sa 08:30-13:30",
        "roof:levels": "1",
        "roof:shape": "gabled",
        "shop": "convenience",
        "wheelchair": "no"
      },
      "geometry": {
        "type": "Polygon",
        "coordinates": [
          [
            [
              8.6899337,
              49.414512
            ],
            [
              8.6899365,
              49.4146167
            ],
            [
              8.6899369,
              49.4146316
            ],
            [
              8.689844,
              49.4146214
            ],
            [
              8.6898409,
              49.4146334
            ],
            [
              8.6897895,
              49.4146277
            ],
            [
              8.6897926,
              49.4146157
            ],
            [
              8.6897122,
              49.4146069
            ],
            [
              8.6897182,
              49.4144902
            ],
            [
              8.6899337,
              49.414512
            ]
          ]
        ]
      },
      "id": "way/220997621"
    },
    {
      "type": "Feature",
      "properties": {
        "@id": "way/229722856",
        "addr:city": "Heidelberg",
        "addr:country": "DE",
        "addr:housenumber": "22",
        "addr:street": "Englerstraße",
        "building": "yes",
        "name": "Keller",
        "shop": "car_repair",
        "source:geometry": "Bing 2012",
        "website": "https://www.fahrzeugaufbereitung-keller.de/"
      },
      "geometry": {
        "type": "Polygon",
        "coordinates": [
          [
            [
              8.678553,
              49.3670877
            ],
            [
              8.6781332,
              49.3670742
            ],
            [
              8.6781433,
              49.3669405
            ],
            [
              8.6785631,
              49.3669539
            ],
            [
              8.678553,
              49.3670877
            ]
          ]
        ]
      },
      "id": "way/229722856"
    },
    {
      "type": "Feature",
      "properties": {
        "@id": "way/235866069",
        "addr:city": "Heidelberg",
        "addr:country": "DE",
        "addr:housenumber": "8",
        "addr:postcode": "69123",
        "addr:street": "Im Schuhmachergewann",
        "brand": "ALDI Süd",
        "brand:wikidata": "Q41171672",
        "brand:wikipedia": "en:Aldi",
        "building": "retail",
        "building:levels": "1",
        "name": "ALDI Süd",
        "opening_hours": "Mo-Sa 08:00-20:00",
        "roof:levels": "0",
        "roof:shape": "gabled",
        "shop": "supermarket",
        "wheelchair": "yes"
      },
      "geometry": {
        "type": "Polygon",
        "coordinates": [
          [
            [
              8.6387493,
              49.4262043
            ],
            [
              8.6389187,
              49.4259949
            ],
            [
              8.6389328,
              49.4259997
            ],
            [
              8.6389561,
              49.4259709
            ],
            [
              8.6391441,
              49.4260353
            ],
            [
              8.6391154,
              49.4260708
            ],
            [
              8.6391709,
              49.4260898
            ],
            [
              8.6392043,
              49.4260485
            ],
            [
              8.6393785,
              49.4261081
            ],
            [
              8.6393457,
              49.4261486
            ],
            [
              8.6397359,
              49.4262821
            ],
            [
              8.6395903,
              49.4264622
            ],
            [
              8.6395378,
              49.4264443
            ],
            [
              8.6395184,
              49.4264682
            ],
            [
              8.6392895,
              49.4263898
            ],
            [
              8.6392433,
              49.4264469
            ],
            [
              8.6390643,
              49.4263856
            ],
            [
              8.6391109,
              49.4263281
            ],
            [
              8.6387493,
              49.4262043
            ]
          ]
        ]
      },
      "id": "way/235866069"
    },
    {
      "type": "Feature",
      "properties": {
        "@id": "way/238888201",
        "addr:city": "Heidelberg",
        "addr:housenumber": "18",
        "addr:postcode": "69121",
        "addr:street": "Dossenheimer Landstraße",
        "building": "apartments",
        "building:apartments": "4",
        "building:basement_opening": "yes",
        "building:first_level_height": "0.5",
        "building:levels": "3",
        "building:use": "residential;commercial",
        "building:waterproof_bulk": "no",
        "name": "Andreas Münkel & Frisöre",
        "opening_hours": "Tu,We 09:00-18:00; Th,Fr 08:00-20:00; Sa 08:00-15:00",
        "shop": "hairdresser",
        "website": "http://www.muenkel-frisoere.de/",
        "wheelchair": "no"
      },
      "geometry": {
        "type": "Polygon",
        "coordinates": [
          [
            [
              8.6844478,
              49.4278899
            ],
            [
              8.6846092,
              49.4278459
            ],
            [
              8.6846767,
              49.4279494
            ],
            [
              8.6845374,
              49.4279907
            ],
            [
              8.6845315,
              49.4279841
            ],
            [
              8.6844478,
              49.4278899
            ]
          ]
        ]
      },
      "id": "way/238888201"
    },
    {
      "type": "Feature",
      "properties": {
        "@id": "way/238888230",
        "addr:city": "Heidelberg",
        "addr:country": "DE",
        "addr:housenumber": "10",
        "addr:postcode": "69121",
        "addr:street": "Kriegsstraße",
        "building": "yes",
        "building:apartments": "4",
        "building:basement_opening": "yes",
        "building:first_level_height": "1.0",
        "building:levels": "3",
        "building:use": "residential;commercial",
        "building:waterproof_bulk": "no",
        "name": "Kücherer's Käse Ecke",
        "opening_hours": "Mo-Fr 07:00-13:00, 15:00-18:30; Sa 07:00-13:00",
        "shop": "convenience",
        "website": "http://kuecherers-kaese-ecke.de/",
        "wheelchair": "no"
      },
      "geometry": {
        "type": "Polygon",
        "coordinates": [
          [
            [
              8.684746,
              49.4287882
            ],
            [
              8.6846351,
              49.4287517
            ],
            [
              8.6847009,
              49.4286671
            ],
            [
              8.6848118,
              49.4287036
            ],
            [
              8.6848027,
              49.4287153
            ],
            [
              8.684746,
              49.4287882
            ]
          ]
        ]
      },
      "id": "way/238888230"
    },
    {
      "type": "Feature",
      "properties": {
        "@id": "way/241687558",
        "addr:city": "Heidelberg",
        "addr:country": "DE",
        "addr:housenumber": "13",
        "addr:postcode": "69124",
        "addr:street": "Pleikartsförster Straße",
        "brand": "ALDI Süd",
        "brand:wikidata": "Q41171672",
        "brand:wikipedia": "en:Aldi",
        "building": "retail",
        "name": "ALDI Süd",
        "opening_hours": "Mo-Sa 08:00-21:00",
        "shop": "supermarket",
        "wheelchair": "yes"
      },
      "geometry": {
        "type": "Polygon",
        "coordinates": [
          [
            [
              8.6638891,
              49.3786816
            ],
            [
              8.663919,
              49.3786254
            ],
            [
              8.6638911,
              49.3786191
            ],
            [
              8.6639958,
              49.3784223
            ],
            [
              8.6645514,
              49.3785475
            ],
            [
              8.6645325,
              49.3785832
            ],
            [
              8.6646782,
              49.3786161
            ],
            [
              8.6648368,
              49.3786518
            ],
            [
              8.6647213,
              49.3788691
            ],
            [
              8.6638891,
              49.3786816
            ]
          ]
        ]
      },
      "id": "way/241687558"
    },
    {
      "type": "Feature",
      "properties": {
        "@id": "way/251802469",
        "addr:city": "Heidelberg",
        "addr:country": "DE",
        "addr:housenumber": "37",
        "addr:postcode": "69124",
        "addr:street": "Schwetzinger Straße",
        "building": "yes",
        "name": "Der Naturfriseur Moritz Haare Pur",
        "shop": "hairdresser",
        "source:geometry": "LGL, www.lgl-bw.de",
        "source:housenumber": "local knowledge"
      },
      "geometry": {
        "type": "Polygon",
        "coordinates": [
          [
            [
              8.6672129,
              49.3783164
            ],
            [
              8.6672365,
              49.3782728
            ],
            [
              8.6671981,
              49.378264
            ],
            [
              8.6672292,
              49.3782066
            ],
            [
              8.6673313,
              49.37823
            ],
            [
              8.667289,
              49.3783081
            ],
            [
              8.6672766,
              49.378331
            ],
            [
              8.6672129,
              49.3783164
            ]
          ]
        ]
      },
      "id": "way/251802469"
    },
    {
      "type": "Feature",
      "properties": {
        "@id": "way/256057214",
        "building": "commercial",
        "building:levels": "1",
        "check_date:opening_hours": "2022-09-13",
        "name": "REWE Center",
        "opening_hours": "Mo-Sa 07:00-24:00",
        "roof:shape": "flat",
        "shop": "supermarket",
        "source:geometry": "DigitalGlobe Standard Imagery",
        "website": "https://www.rewe.de/marktseite/heidelberg/831061/rewe-center-felix-wankel-strasse-20/",
        "wheelchair": "yes"
      },
      "geometry": {
        "type": "Polygon",
        "coordinates": [
          [
            [
              8.678247,
              49.3845137
            ],
            [
              8.6779494,
              49.384478
            ],
            [
              8.6781866,
              49.3836394
            ],
            [
              8.6782531,
              49.3836473
            ],
            [
              8.6782818,
              49.3835248
            ],
            [
              8.6787303,
              49.3835065
            ],
            [
              8.6787486,
              49.3836614
            ],
            [
              8.678735,
              49.3837051
            ],
            [
              8.6788051,
              49.3837135
            ],
            [
              8.678568,
              49.3845521
            ],
            [
              8.6785076,
              49.3845449
            ],
            [
              8.6784974,
              49.3845816
            ],
            [
              8.6783038,
              49.3846238
            ],
            [
              8.678247,
              49.3845137
            ]
          ]
        ]
      },
      "id": "way/256057214"
    },
    {
      "type": "Feature",
      "properties": {
        "@id": "way/256057216",
        "addr:city": "Heidelberg",
        "addr:housenumber": "18",
        "addr:postcode": "69126",
        "addr:street": "Felix-Wankel-Straße",
        "brand": "ALDI Süd",
        "brand:wikidata": "Q41171672",
        "brand:wikipedia": "en:Aldi",
        "building": "commercial",
        "building:levels": "1",
        "check_date:opening_hours": "2022-09-13",
        "name": "ALDI Süd",
        "opening_hours": "Mo-Sa 08:00-21:00",
        "roof:shape": "flat",
        "shop": "supermarket",
        "smoking": "no",
        "source:geometry": "DigitalGlobe Standard Imagery",
        "wheelchair": "yes"
      },
      "geometry": {
        "type": "Polygon",
        "coordinates": [
          [
            [
              8.6782551,
              49.383246
            ],
            [
              8.6782448,
              49.3831394
            ],
            [
              8.6781722,
              49.3831424
            ],
            [
              8.6781629,
              49.3830461
            ],
            [
              8.678235,
              49.3830432
            ],
            [
              8.6782115,
              49.3827983
            ],
            [
              8.678629,
              49.3827813
            ],
            [
              8.678672,
              49.3832291
            ],
            [
              8.6782551,
              49.383246
            ]
          ]
        ]
      },
      "id": "way/256057216"
    },
    {
      "type": "Feature",
      "properties": {
        "@id": "way/304703078",
        "addr:city": "Heidelberg",
        "addr:country": "DE",
        "addr:housenumber": "102",
        "addr:postcode": "69123",
        "addr:street": "Kurpfalzring",
        "building": "yes",
        "name": "KFZ Service Heid",
        "office": "company",
        "phone": "+496221707838",
        "shop": "car_repair"
      },
      "geometry": {
        "type": "Polygon",
        "coordinates": [
          [
            [
              8.6399724,
              49.4077897
            ],
            [
              8.6399661,
              49.4076886
            ],
            [
              8.6401768,
              49.407683
            ],
            [
              8.6401831,
              49.4077841
            ],
            [
              8.6399724,
              49.4077897
            ]
          ]
        ]
      },
      "id": "way/304703078"
    },
    {
      "type": "Feature",
      "properties": {
        "@id": "way/401984029",
        "addr:city": "Heidelberg",
        "addr:country": "DE",
        "addr:postcode": "69115",
        "addr:street": "Bergheimer Straße",
        "brand": "Rewe To Go",
        "brand:wikidata": "Q16968817",
        "brand:wikipedia": "en:REWE",
        "building": "yes",
        "name": "Rewe To Go",
        "shop": "convenience",
        "source": "LGL, www.lgl-bw.de",
        "wheelchair": "no"
      },
      "geometry": {
        "type": "Polygon",
        "coordinates": [
          [
            [
              8.6781099,
              49.4082567
            ],
            [
              8.6781085,
              49.4081717
            ],
            [
              8.6783044,
              49.4081703
            ],
            [
              8.6783048,
              49.4081951
            ],
            [
              8.6784235,
              49.4081943
            ],
            [
              8.6784245,
              49.4082545
            ],
            [
              8.6781099,
              49.4082567
            ]
          ]
        ]
      },
      "id": "way/401984029"
    },
    {
      "type": "Feature",
      "properties": {
        "@id": "way/442398416",
        "addr:housenumber": "14",
        "addr:street": "Im Weiher",
        "brand": "REWE",
        "brand:wikidata": "Q16968817",
        "brand:wikipedia": "en:REWE",
        "building": "retail",
        "building:levels": "1",
        "check_date:opening_hours": "2022-05-28",
        "name": "REWE",
        "opening_hours": "Mo-Sa 07:00-24:00",
        "shop": "supermarket",
        "source:geometry": "LGL, www.lgl-bw.de",
        "toilets:wheelchair": "no",
        "wheelchair": "yes"
      },
      "geometry": {
        "type": "Polygon",
        "coordinates": [
          [
            [
              8.6780369,
              49.4367327
            ],
            [
              8.6781346,
              49.436364
            ],
            [
              8.6790005,
              49.4364611
            ],
            [
              8.6793077,
              49.4364955
            ],
            [
              8.6791994,
              49.4369042
            ],
            [
              8.6783638,
              49.4368105
            ],
            [
              8.6783684,
              49.4367932
            ],
            [
              8.6783744,
              49.4367706
            ],
            [
              8.6780369,
              49.4367327
            ]
          ]
        ]
      },
      "id": "way/442398416"
    },
    {
      "type": "Feature",
      "properties": {
        "@id": "way/456112466",
        "addr:city": "Heidelberg",
        "addr:housenumber": "49",
        "addr:postcode": "69120",
        "addr:street": "Berliner Straße",
        "brand": "ALDI Süd",
        "brand:wikidata": "Q41171672",
        "brand:wikipedia": "en:Aldi",
        "building": "retail",
        "building:levels": "1",
        "check_date": "2022-05-22",
        "check_date:opening_hours": "2021-04-08",
        "level": "0",
        "name": "ALDI Süd",
        "opening_hours": "Mo-Sa 08:00-21:00",
        "payment:mastercard": "yes",
        "payment:visa": "yes",
        "roof:levels": "0",
        "roof:shape": "flat",
        "shop": "supermarket",
        "wheelchair": "yes"
      },
      "geometry": {
        "type": "Polygon",
        "coordinates": [
          [
            [
              8.6755482,
              49.4186679
            ],
            [
              8.6755536,
              49.4190265
            ],
            [
              8.6753928,
              49.4190264
            ],
            [
              8.675181,
              49.4190262
            ],
            [
              8.6751798,
              49.4189031
            ],
            [
              8.6752039,
              49.418903
            ],
            [
              8.6752017,
              49.4186706
            ],
            [
              8.6755482,
              49.4186679
            ]
          ]
        ]
      },
      "id": "way/456112466"
    },
    {
      "type": "Feature",
      "properties": {
        "@id": "way/456112467",
        "addr:city": "Heidelberg",
        "addr:housenumber": "49",
        "addr:postcode": "69120",
        "addr:street": "Berliner Straße",
        "brand": "REWE",
        "brand:wikidata": "Q16968817",
        "brand:wikipedia": "de:Rewe (Markt)",
        "check_date:opening_hours": "2021-02-16",
        "drink:club_mate": "yes",
        "level": "0",
        "name": "REWE",
        "opening_hours": "Mo-Sa 07:00-24:00",
        "operator": "REWE",
        "shop": "supermarket",
        "wheelchair": "yes"
      },
      "geometry": {
        "type": "Polygon",
        "coordinates": [
          [
            [
              8.6759017,
              49.4190267
            ],
            [
              8.6756713,
              49.4190265
            ],
            [
              8.6755536,
              49.4190265
            ],
            [
              8.6755482,
              49.4186679
            ],
            [
              8.6758823,
              49.4186653
            ],
            [
              8.6758832,
              49.4189043
            ],
            [
              8.6759013,
              49.4189042
            ],
            [
              8.6759015,
              49.4189597
            ],
            [
              8.6759017,
              49.4190267
            ]
          ]
        ]
      },
      "id": "way/456112467"
    },
    {
      "type": "Feature",
      "properties": {
        "@id": "way/704445785",
        "brand": "Netto Marken-Discount",
        "brand:wikidata": "Q879858",
        "brand:wikipedia": "de:Netto Marken-Discount",
        "building": "retail",
        "check_date:opening_hours": "2022-02-09",
        "name": "Netto Marken-Discount",
        "nohousenumber": "yes",
        "opening_hours": "Mo-Sa 07:00-21:00",
        "shop": "supermarket"
      },
      "geometry": {
        "type": "Polygon",
        "coordinates": [
          [
            [
              8.6431468,
              49.3955692
            ],
            [
              8.6432376,
              49.3952704
            ],
            [
              8.6433286,
              49.3952808
            ],
            [
              8.6433416,
              49.3952347
            ],
            [
              8.64373,
              49.3952848
            ],
            [
              8.6436162,
              49.3956309
            ],
            [
              8.6431468,
              49.3955692
            ]
          ]
        ]
      },
      "id": "way/704445785"
    },
    {
      "type": "Feature",
      "properties": {
        "@id": "node/273685438",
        "addr:city": "Heidelberg",
        "addr:country": "DE",
        "addr:housenumber": "1",
        "addr:postcode": "69123",
        "addr:street": "Adlerstraße",
        "check_date:opening_hours": "2021-05-27",
        "lastcheck": "2016-02-19",
        "name": "Fair & Quer",
        "opening_hours": "Mo-Fr 08:00-20:00; Sa 08:00-18:00",
        "organic": "only",
        "shop": "supermarket",
        "wheelchair": "yes"
      },
      "geometry": {
        "type": "Point",
        "coordinates": [
          8.6443664,
          49.4249326
        ]
      },
      "id": "node/273685438"
    },
    {
      "type": "Feature",
      "properties": {
        "@id": "node/281825576",
        "check_date:opening_hours": "2021-02-16",
        "name": "REWE City",
        "opening_hours": "Mo-Sa 07:00-22:00",
        "shop": "supermarket",
        "website": "https://www.rewe.de/",
        "wheelchair": "yes"
      },
      "geometry": {
        "type": "Point",
        "coordinates": [
          8.6803337,
          49.4212804
        ]
      },
      "id": "node/281825576"
    },
    {
      "type": "Feature",
      "properties": {
        "@id": "node/297044318",
        "addr:city": "Heidelberg",
        "addr:country": "DE",
        "addr:housenumber": "1-3",
        "addr:postcode": "69118",
        "addr:street": "In der Neckarhelle",
        "addr:suburb": "Ziegelhausen",
        "branch": "Sabine Bischoff",
        "brand": "EDEKA",
        "brand:wikidata": "Q701755",
        "brand:wikipedia": "de:Edeka",
        "name": "EDEKA",
        "opening_hours": "Mo-Sa 08:00-21:00",
        "opening_hours:covid19": "same",
        "phone": "+496221800735",
        "shop": "supermarket",
        "source": "survey",
        "website": "https://www.edeka.de/eh/südwest/nah-und-gut-bischoff-in-der-neckarhelle-1-3/index.jsp",
        "wheelchair": "yes"
      },
      "geometry": {
        "type": "Point",
        "coordinates": [
          8.7566479,
          49.4178839
        ]
      },
      "id": "node/297044318"
    },
    {
      "type": "Feature",
      "properties": {
        "@id": "node/300961054",
        "addr:housenumber": "9",
        "addr:street": "Im Bosseldorn",
        "name": "Peter Tressi",
        "shop": "car_repair"
      },
      "geometry": {
        "type": "Point",
        "coordinates": [
          8.6803,
          49.384892
        ]
      },
      "id": "node/300961054"
    },
    {
      "type": "Feature",
      "properties": {
        "@id": "node/307793871",
        "name": "Friseursalon Tyros",
        "opening_hours": "Tu- Sa 10:00 - 19:00",
        "shop": "hairdresser"
      },
      "geometry": {
        "type": "Point",
        "coordinates": [
          8.6728538,
          49.3784886
        ]
      },
      "id": "node/307793871"
    },
    {
      "type": "Feature",
      "properties": {
        "@id": "node/309437261",
        "brand": "PENNY",
        "brand:wikidata": "Q284688",
        "brand:wikipedia": "en:Penny (supermarket)",
        "name": "PENNY",
        "opening_hours": "Mo-Sa 08:00-22:00; Su,PH off",
        "shop": "supermarket",
        "wheelchair": "limited"
      },
      "geometry": {
        "type": "Point",
        "coordinates": [
          8.6913843,
          49.4060392
        ]
      },
      "id": "node/309437261"
    },
    {
      "type": "Feature",
      "properties": {
        "@id": "node/319480098",
        "layer": "-1",
        "name": "Autohaus Neckarhelle",
        "shop": "car_repair"
      },
      "geometry": {
        "type": "Point",
        "coordinates": [
          8.7487635,
          49.4171479
        ]
      },
      "id": "node/319480098"
    },
    {
      "type": "Feature",
      "properties": {
        "@id": "node/320398781",
        "check_date:opening_hours": "2022-06-15",
        "drink:club-mate": "retail",
        "level": "0",
        "name": "Unishop",
        "opening_hours": "Mo-Fr 08:30-15:00",
        "shop": "convenience",
        "wheelchair": "yes"
      },
      "geometry": {
        "type": "Point",
        "coordinates": [
          8.6708157,
          49.4162951
        ]
      },
      "id": "node/320398781"
    },
    {
      "type": "Feature",
      "properties": {
        "@id": "node/332583025",
        "addr:city": "Heidelberg",
        "addr:housenumber": "11",
        "addr:postcode": "69115",
        "addr:street": "Poststraße",
        "brand": "Aldi Süd",
        "brand:wikidata": "Q41171672",
        "brand:wikipedia": "en:Aldi",
        "check_date:opening_hours": "2021-11-23",
        "name": "Aldi Süd",
        "opening_hours": "Mo-Sa 08:00-21:00",
        "shop": "supermarket",
        "wheelchair": "yes"
      },
      "geometry": {
        "type": "Point",
        "coordinates": [
          8.6892711,
          49.4074324
        ]
      },
      "id": "node/332583025"
    },
    {
      "type": "Feature",
      "properties": {
        "@id": "node/352680701",
        "name": "Billigladen",
        "shop": "convenience",
        "wheelchair": "limited"
      },
      "geometry": {
        "type": "Point",
        "coordinates": [
          8.6789436,
          49.3964242
        ]
      },
      "id": "node/352680701"
    },
    {
      "type": "Feature",
      "properties": {
        "@id": "node/371859179",
        "addr:city": "Heidelberg",
        "addr:country": "DE",
        "addr:housenumber": "2",
        "addr:postcode": "69124",
        "addr:street": "Heuauer Weg",
        "brand": "Lidl",
        "brand:wikidata": "Q151954",
        "brand:wikipedia": "en:Lidl",
        "check_date:opening_hours": "2021-02-27",
        "name": "Lidl",
        "opening_hours": "Mo-Sa 08:00-21:00",
        "shop": "supermarket",
        "wheelchair": "yes"
      },
      "geometry": {
        "type": "Point",
        "coordinates": [
          8.6645506,
          49.3773316
        ]
      },
      "id": "node/371859179"
    },
    {
      "type": "Feature",
      "properties": {
        "@id": "node/443653488",
        "addr:city": "Heidelberg",
        "addr:housenumber": "52",
        "addr:postcode": "69121",
        "addr:street": "Steubenstraße",
        "check_date:opening_hours": "2022-09-01",
        "contact:email": "kontakt@fairundquer.de",
        "contact:fax": "+49 6221 5860518",
        "contact:phone": "+49 6221 5860516",
        "contact:website": "http://www.fairundquer.de",
        "name": "Fair & Quer",
        "opening_hours": "Mo-We 08:00-19:00; Th,Fr 08:00-20:00; Sa 08:00-16:00",
        "organic": "only",
        "shop": "supermarket",
        "wheelchair": "yes"
      },
      "geometry": {
        "type": "Point",
        "coordinates": [
          8.6878404,
          49.4250822
        ]
      },
      "id": "node/443653488"
    },
    {
      "type": "Feature",
      "properties": {
        "@id": "node/444526116",
        "addr:city": "Heidelberg",
        "addr:country": "DE",
        "addr:housenumber": "198",
        "addr:postcode": "69117",
        "addr:street": "Hauptstraße",
        "name": "City-Markt Rüdinger",
        "shop": "supermarket",
        "wheelchair": "no"
      },
      "geometry": {
        "type": "Point",
        "coordinates": [
          8.710422,
          49.4118508
        ]
      },
      "id": "node/444526116"
    },
    {
      "type": "Feature",
      "properties": {
        "@id": "node/453017487",
        "brand": "Hunkemöller",
        "brand:wikidata": "Q2604175",
        "brand:wikipedia": "en:Hunkemöller",
        "check_date:opening_hours": "2022-10-27",
        "clothes": "underwear",
        "lastcheck": "2017-08-14",
        "name": "Hunkemöller",
        "old_name": "Tally Weil",
        "opening_hours": "Mo-Sa 10:00-20:00",
        "phone": "+49 6221 727 15 96",
        "shop": "clothes",
        "source": "survey",
        "website": "https://www.hunkemoller.de/de_de/winkel/heidelberg-hauptstrae",
        "wheelchair": "no"
      },
      "geometry": {
        "type": "Point",
        "coordinates": [
          8.6967045,
          49.4102284
        ]
      },
      "id": "node/453017487"
    },
    {
      "type": "Feature",
      "properties": {
        "@id": "node/454159135",
        "addr:city": "Heidelberg",
        "addr:country": "DE",
        "addr:housenumber": "3b",
        "addr:postcode": "69120",
        "addr:street": "Mönchhofstraße",
        "check_date:opening_hours": "2021-04-26",
        "name": "Apropos Haare",
        "opening_hours": "Mo,Fr 08:45-18:00; Tu,Th 08:45-18:45; We 08:45-20:15; Sa 08:00-14:00",
        "shop": "hairdresser",
        "source": "survey",
        "website": "https://www.aproposhaare.de/heidelberg/",
        "wheelchair": "limited"
      },
      "geometry": {
        "type": "Point",
        "coordinates": [
          8.69049,
          49.4173278
        ]
      },
      "id": "node/454159135"
    },
    {
      "type": "Feature",
      "properties": {
        "@id": "node/454167230",
        "brand": "C&A",
        "brand:wikidata": "Q701338",
        "brand:wikipedia": "en:C&A",
        "lastcheck": "2017-08-14",
        "name": "C&A",
        "opening_hours": "Mo-Sa 10:00-20:00",
        "phone": "+49 6221 438503",
        "shop": "clothes",
        "source": "survey",
        "toilets:wheelchair": "no",
        "website": "http://www.c-and-a.com/de/de/corporate/filialsuche/nc/1/shopfinder/Store/",
        "wheelchair": "limited"
      },
      "geometry": {
        "type": "Point",
        "coordinates": [
          8.700024,
          49.4109253
        ]
      },
      "id": "node/454167230"
    },
    {
      "type": "Feature",
      "properties": {
        "@id": "node/454167231",
        "lastcheck": "2017-08-14",
        "name": "Tredy",
        "opening_hours": "Mo-Sa 10:00-18:00",
        "phone": "+49 6221 5870595",
        "shop": "clothes",
        "website": "https://www.tredy-fashion.de/",
        "wheelchair": "yes"
      },
      "geometry": {
        "type": "Point",
        "coordinates": [
          8.7003872,
          49.4108361
        ]
      },
      "id": "node/454167231"
    },
    {
      "type": "Feature",
      "properties": {
        "@id": "node/534744958",
        "name": "Claudia Ruda",
        "opening_hours": "Mo 08:00-14:00; Tu 09:00-20:00; We,Th 09:00-18:00; Fr 09:00-20:00; Sa 08:00-14:00",
        "shop": "hairdresser",
        "wheelchair": "no"
      },
      "geometry": {
        "type": "Point",
        "coordinates": [
          8.687886,
          49.41587
        ]
      },
      "id": "node/534744958"
    },
    {
      "type": "Feature",
      "properties": {
        "@id": "node/539837515",
        "brand": "PENNY",
        "brand:wikidata": "Q284688",
        "brand:wikipedia": "en:Penny (supermarket)",
        "name": "PENNY",
        "opening_hours": "Mo-Sa 07:30-22:00",
        "shop": "supermarket",
        "wheelchair": "yes"
      },
      "geometry": {
        "type": "Point",
        "coordinates": [
          8.6905386,
          49.3794823
        ]
      },
      "id": "node/539837515"
    },
    {
      "type": "Feature",
      "properties": {
        "@id": "node/539837523",
        "name": "Autoservice Südstadt",
        "shop": "car_repair",
        "website": "https://www.autoservice-suedstadt.de/"
      },
      "geometry": {
        "type": "Point",
        "coordinates": [
          8.6850456,
          49.3936899
        ]
      },
      "id": "node/539837523"
    },
    {
      "type": "Feature",
      "properties": {
        "@id": "node/539837543",
        "addr:city": "Heidelberg",
        "addr:country": "DE",
        "addr:housenumber": "72",
        "addr:postcode": "69115",
        "addr:street": "Rohrbacher Straße",
        "brand": "Nahkauf",
        "brand:wikidata": "Q57515238",
        "name": "Nahkauf",
        "opening_hours": "Mo-Sa 08:00-21:00",
        "operator": "Familie Lannert",
        "shop": "supermarket",
        "wheelchair": "limited"
      },
      "geometry": {
        "type": "Point",
        "coordinates": [
          8.6910526,
          49.4015318
        ]
      },
      "id": "node/539837543"
    },
    {
      "type": "Feature",
      "properties": {
        "@id": "node/540221758",
        "name": "Nollenberger",
        "shop": "car_repair",
        "wheelchair": "limited"
      },
      "geometry": {
        "type": "Point",
        "coordinates": [
          8.6889866,
          49.415874
        ]
      },
      "id": "node/540221758"
    },
    {
      "type": "Feature",
      "properties": {
        "@id": "node/540224758",
        "name": "Rohrmann's",
        "shop": "hairdresser",
        "wheelchair": "no"
      },
      "geometry": {
        "type": "Point",
        "coordinates": [
          8.6909995,
          49.4157813
        ]
      },
      "id": "node/540224758"
    },
    {
      "type": "Feature",
      "properties": {
        "@id": "node/540583953",
        "addr:city": "Heidelberg",
        "addr:postcode": "69120",
        "addr:street": "Im Neuenheimer Feld",
        "contact:email": "appelunei@stura.uni-heidelberg.de",
        "contact:website": "https://appelunei.stura.uni-heidelberg.de/",
        "name": "Appel un' Ei",
        "opening_hours": "\"siehe Webseite\"",
        "opening_hours:url": "https://appelunei.stura.uni-heidelberg.de/",
        "organic": "only",
        "payment:cash": "yes",
        "payment:credit_cards": "no",
        "payment:debit_cards": "no",
        "shop": "convenience",
        "wheelchair": "limited"
      },
      "geometry": {
        "type": "Point",
        "coordinates": [
          8.6708277,
          49.4151641
        ]
      },
      "id": "node/540583953"
    },
    {
      "type": "Feature",
      "properties": {
        "@id": "node/653353265",
        "name": "Pamir",
        "shop": "convenience",
        "wheelchair": "no"
      },
      "geometry": {
        "type": "Point",
        "coordinates": [
          8.691554,
          49.408786
        ]
      },
      "id": "node/653353265"
    },
    {
      "type": "Feature",
      "properties": {
        "@id": "node/660106677",
        "addr:housenumber": "15",
        "addr:postcode": "69120",
        "addr:street": "Brückenstraße",
        "fax": "+49 6221 409739",
        "name": "New Point",
        "opening_hours": "Mo-Fr 10:00-18:30;Sa 10:00-15:00",
        "phone": "+49 6221 409739",
        "shop": "clothes",
        "website": "http://www.newpoint-heidelberg.de",
        "wheelchair": "no"
      },
      "geometry": {
        "type": "Point",
        "coordinates": [
          8.6920458,
          49.4143101
        ]
      },
      "id": "node/660106677"
    },
    {
      "type": "Feature",
      "properties": {
        "@id": "node/660107082",
        "addr:housenumber": "10",
        "addr:postcode": "69120",
        "addr:street": "Brückenstraße",
        "name": "Coccon",
        "opening_hours": "Mo-Fr 11:00-19:00; Sa 11:00-19:00",
        "phone": "+49 6221 484588",
        "shop": "clothes",
        "website": "http://www.coccon-hd.de",
        "wheelchair": "no"
      },
      "geometry": {
        "type": "Point",
        "coordinates": [
          8.6923515,
          49.4144377
        ]
      },
      "id": "node/660107082"
    },
    {
      "type": "Feature",
      "properties": {
        "@id": "node/666918625",
        "addr:city": "Heidelberg",
        "addr:housenumber": "14",
        "addr:postcode": "69115",
        "addr:street": "Hebelstraße",
        "name": "Bosch Car Service Böhm",
        "phone": "+496221503600",
        "shop": "car_repair"
      },
      "geometry": {
        "type": "Point",
        "coordinates": [
          8.6798603,
          49.3975792
        ]
      },
      "id": "node/666918625"
    },
    {
      "type": "Feature",
      "properties": {
        "@id": "node/679651841",
        "name": "Feinkost Sahin",
        "opening_hours": "Mo-Fr 07:00-19:00; Sa 07:00-14:30",
        "shop": "supermarket",
        "website": "http://www.feinkost-sahin.de",
        "wheelchair": "limited"
      },
      "geometry": {
        "type": "Point",
        "coordinates": [
          8.6881868,
          49.3992194
        ]
      },
      "id": "node/679651841"
    },
    {
      "type": "Feature",
      "properties": {
        "@id": "node/776424366",
        "contact:facebook": "https://www.facebook.com/herbigcoiffeur/",
        "name": "Herbig Coiffeur",
        "opening_hours": "Tu,Th 09:00-18:30;We 09:30-18:30;Fr 09:00-19:00;Sa 08:30-15:00",
        "phone": "+49 6221 782828",
        "shop": "hairdresser"
      },
      "geometry": {
        "type": "Point",
        "coordinates": [
          8.6716212,
          49.3815064
        ]
      },
      "id": "node/776424366"
    },
    {
      "type": "Feature",
      "properties": {
        "@id": "node/888563611",
        "name": "Textil Schmitt",
        "opening_hours": "Mo-Fr 09:00-12:30, Mo,Tu,Th,Fr 15:00-18:00, Sa 09:00-12:30",
        "shop": "clothes"
      },
      "geometry": {
        "type": "Point",
        "coordinates": [
          8.6886406,
          49.379942
        ]
      },
      "id": "node/888563611"
    },
    {
      "type": "Feature",
      "properties": {
        "@id": "node/905140538",
        "addr:city": "Heidelberg",
        "addr:country": "DE",
        "addr:housenumber": "78",
        "addr:postcode": "69123",
        "addr:street": "Eppelheimer Straße",
        "name": "Takko",
        "shop": "clothes",
        "wheelchair": "yes"
      },
      "geometry": {
        "type": "Point",
        "coordinates": [
          8.6460753,
          49.4041101
        ]
      },
      "id": "node/905140538"
    },
    {
      "type": "Feature",
      "properties": {
        "@id": "node/905140884",
        "addr:city": "Heidelberg",
        "addr:country": "DE",
        "addr:housenumber": "78",
        "addr:postcode": "69123",
        "addr:street": "Eppelheimer Straße",
        "name": "kik",
        "shop": "clothes",
        "wheelchair": "yes"
      },
      "geometry": {
        "type": "Point",
        "coordinates": [
          8.6463295,
          49.4045907
        ]
      },
      "id": "node/905140884"
    },
    {
      "type": "Feature",
      "properties": {
        "@id": "node/942793879",
        "name": "vonLennox",
        "opening_hours": "Mo-Sa 07:30-20:00",
        "shop": "clothes",
        "website": "https://www.vonlennox.com"
      },
      "geometry": {
        "type": "Point",
        "coordinates": [
          8.6932982,
          49.4109851
        ]
      },
      "id": "node/942793879"
    },
    {
      "type": "Feature",
      "properties": {
        "@id": "node/1027945005",
        "addr:city": "Heidelberg",
        "addr:housenumber": "55-57",
        "addr:postcode": "69115",
        "addr:street": "Bahnhofstraße",
        "check_date:opening_hours": "2022-05-31",
        "contact:email": "hallo@masala-heidelberg.de",
        "contact:fax": "+49 6221 652314",
        "contact:phone": "+49 6221 652313",
        "contact:website": "http://www.masala-heidelberg.de",
        "name": "Masala",
        "opening_hours": "Sa 11:00-18:00; Tu-Fr 11:00-18:00",
        "organic": "only",
        "shop": "supermarket",
        "wheelchair": "yes"
      },
      "geometry": {
        "type": "Point",
        "coordinates": [
          8.6859162,
          49.4050807
        ]
      },
      "id": "node/1027945005"
    },
    {
      "type": "Feature",
      "properties": {
        "@id": "node/1027945033",
        "addr:city": "Heidelberg",
        "addr:country": "DE",
        "addr:housenumber": "15",
        "addr:postcode": "69115",
        "addr:street": "Bahnhofstraße",
        "contact:phone": "+49 6221 26745",
        "name": "Heil's Feinschmecker Läd'l",
        "note": "Delikattessen, Feinkost, etc...",
        "opening_hours": "Mo-Th 10:00-13:00, 16:00-19:00; Fr 09:00-19:00; Sa 09:00-16:00",
        "shop": "supermarket",
        "website": "https://www.heils-feinkost-heidelberg.de",
        "wheelchair": "no"
      },
      "geometry": {
        "type": "Point",
        "coordinates": [
          8.6906772,
          49.4058949
        ]
      },
      "id": "node/1027945033"
    },
    {
      "type": "Feature",
      "properties": {
        "@id": "node/1097197227",
        "name": "Aivon",
        "opening_hours": "Tu-Fr 08:30-18:00; Sa 08:00-14:00",
        "shop": "hairdresser",
        "unisex": "yes",
        "wheelchair": "no"
      },
      "geometry": {
        "type": "Point",
        "coordinates": [
          8.6925731,
          49.4060524
        ]
      },
      "id": "node/1097197227"
    },
    {
      "type": "Feature",
      "properties": {
        "@id": "node/1097197282",
        "addr:city": "Heidelberg",
        "addr:country": "DE",
        "addr:housenumber": "18",
        "addr:postcode": "69115",
        "addr:street": "Rohrbacher Straße",
        "name": "Kopfkultur",
        "opening_hours": "Tu 09:00-19:00; We-Fr 10:00-20:00; Sa 08:00-15:00",
        "phone": "+49 6221 6502460",
        "shop": "hairdresser",
        "website": "http://www.kopfkultur.com/",
        "wheelchair": "no"
      },
      "geometry": {
        "type": "Point",
        "coordinates": [
          8.6924655,
          49.4057127
        ]
      },
      "id": "node/1097197282"
    },
    {
      "type": "Feature",
      "properties": {
        "@id": "node/1097197287",
        "addr:city": "Heidelberg",
        "addr:housenumber": "79",
        "addr:postcode": "69115",
        "addr:street": "Rohrbacher Straße",
        "check_date:opening_hours": "2022-06-14",
        "name": "Barbershop Königstuhl",
        "opening_hours": "Mo-Sa 09:00-19:00",
        "shop": "hairdresser",
        "toilets:wheelchair": "no",
        "website": "https://www.konigstuhl.de/",
        "wheelchair": "no"
      },
      "geometry": {
        "type": "Point",
        "coordinates": [
          8.6912107,
          49.4010943
        ]
      },
      "id": "node/1097197287"
    },
    {
      "type": "Feature",
      "properties": {
        "@id": "node/1097197319",
        "closed:name": "Eberle",
        "closed:shop": "hairdresser",
        "closed:website": "https://www.friseur-eberle.de",
        "name": "Damen & Herrenstylist",
        "opening_hours": "Tu,We 09:00-18:30; Th,Fr 09:00-19:00; Sa 09:00-15:00",
        "shop": "hairdresser"
      },
      "geometry": {
        "type": "Point",
        "coordinates": [
          8.6913184,
          49.4012489
        ]
      },
      "id": "node/1097197319"
    },
    {
      "type": "Feature",
      "properties": {
        "@id": "node/1097197433",
        "name": "Der Barbier",
        "shop": "hairdresser",
        "wheelchair": "limited"
      },
      "geometry": {
        "type": "Point",
        "coordinates": [
          8.692015,
          49.4088747
        ]
      },
      "id": "node/1097197433"
    },
    {
      "type": "Feature",
      "properties": {
        "@id": "node/1158860537",
        "name": "Dieter Bauer Autotechnik",
        "phone": "+49 6221 840468",
        "shop": "car_repair",
        "website": "http://www.dieterbauer-autotechnik.de/"
      },
      "geometry": {
        "type": "Point",
        "coordinates": [
          8.6363377,
          49.4275388
        ]
      },
      "id": "node/1158860537"
    },
    {
      "type": "Feature",
      "properties": {
        "@id": "node/1233857319",
        "addr:city": "Heidelberg",
        "addr:housenumber": "1",
        "addr:postcode": "69126",
        "addr:street": "Hertzstraße",
        "brand": "Kaufland",
        "brand:wikidata": "Q685967",
        "brand:wikipedia": "en:Kaufland",
        "level": "0",
        "name": "Kaufland",
        "opening_hours": "Mo-Sa 07:00-22:00",
        "shop": "supermarket",
        "wheelchair": "yes",
        "wheelchair:description": "Einkaufen, Essen, Trinken, Toilette, Parkplätze alles barrierefrei"
      },
      "geometry": {
        "type": "Point",
        "coordinates": [
          8.6855322,
          49.367401
        ]
      },
      "id": "node/1233857319"
    },
    {
      "type": "Feature",
      "properties": {
        "@id": "node/1266040544",
        "addr:city": "Heidelberg",
        "addr:housenumber": "6",
        "addr:postcode": "69115",
        "addr:street": "Kurfürsten-Anlage",
        "brand": "Rewe City",
        "brand:wikidata": "Q16968817",
        "brand:wikipedia": "en:REWE",
        "level": "0",
        "name": "Rewe City",
        "opening_hours": "Mo-Sa 07:00-24:00",
        "phone": "+49622184021",
        "shop": "supermarket",
        "website": "https://www.rewe.de/marktseite/rewe-city-markt-heidelberg-kurf%C3%BCrstenanlage-6/",
        "wheelchair": "yes"
      },
      "geometry": {
        "type": "Point",
        "coordinates": [
          8.6917185,
          49.4074951
        ]
      },
      "id": "node/1266040544"
    },
    {
      "type": "Feature",
      "properties": {
        "@id": "node/1280414277",
        "addr:city": "Heidelberg",
        "addr:housenumber": "2",
        "addr:postcode": "69115",
        "addr:street": "Poststraße",
        "name": "Orient Style",
        "old_name": "Next Haircut",
        "phone": "+49 6221 6732225",
        "shop": "hairdresser"
      },
      "geometry": {
        "type": "Point",
        "coordinates": [
          8.6919045,
          49.4083358
        ]
      },
      "id": "node/1280414277"
    },
    {
      "type": "Feature",
      "properties": {
        "@id": "node/1309601588",
        "addr:city": "Heidelberg",
        "addr:housenumber": "2",
        "addr:postcode": "69117",
        "addr:street": "Heugasse",
        "contact:email": "info@weltladen-heidelberg.de",
        "contact:phone": "+49 6221 22771",
        "lastcheck": "2017-08-14",
        "name": "Weltladen Heidelberg-Altstadt",
        "opening_hours": "Mo-Do 10:00-18:00; Fr - Sa 11:00-16:00",
        "organic": "yes",
        "shop": "convenience",
        "website": "http://weltladen-heidelberg.de",
        "wheelchair": "no"
      },
      "geometry": {
        "type": "Point",
        "coordinates": [
          8.7076514,
          49.4114091
        ]
      },
      "id": "node/1309601588"
    },
    {
      "type": "Feature",
      "properties": {
        "@id": "node/1332264601",
        "addr:city": "Heidelberg",
        "addr:housenumber": "17",
        "addr:postcode": "69115",
        "addr:street": "Bahnhofstraße",
        "check_date:opening_hours": "2021-08-28",
        "name": "Butt Asian Shop",
        "opening_hours": "Mo-Fr 09:30-20:00; Sa 09:30-18:00",
        "operator": "Waseem Butt",
        "phone": "+49 6221 169597",
        "shop": "convenience",
        "wheelchair": "no"
      },
      "geometry": {
        "type": "Point",
        "coordinates": [
          8.6905004,
          49.4059264
        ]
      },
      "id": "node/1332264601"
    },
    {
      "type": "Feature",
      "properties": {
        "@id": "node/1361268675",
        "addr:housenumber": "8",
        "addr:street": "Rohrbacher Straße",
        "check_date": "2022-11-16",
        "level": "0",
        "name": "Tiger and Dragon's Food Store",
        "opening_hours": "Mo-Fr 10:00-19:00; Sa 10:00-18:30",
        "origin": "asian",
        "shop": "convenience",
        "toilets:wheelchair": "no",
        "wheelchair": "yes"
      },
      "geometry": {
        "type": "Point",
        "coordinates": [
          8.6920721,
          49.4076894
        ]
      },
      "id": "node/1361268675"
    },
    {
      "type": "Feature",
      "properties": {
        "@id": "node/1384205671",
        "addr:city": "Heidelberg",
        "addr:country": "DE",
        "addr:housenumber": "68",
        "addr:postcode": "69120",
        "addr:street": "Ladenburger Straße",
        "brand": "REWE City",
        "brand:wikidata": "Q16968817",
        "name": "REWE",
        "opening_hours": "Mo-Sa 07:00-22:00; Su,PH off",
        "shop": "supermarket",
        "wheelchair": "yes"
      },
      "geometry": {
        "type": "Point",
        "coordinates": [
          8.685653,
          49.4141377
        ]
      },
      "id": "node/1384205671"
    },
    {
      "type": "Feature",
      "properties": {
        "@id": "node/1426035596",
        "addr:city": "Heidelberg",
        "addr:housenumber": "23",
        "addr:postcode": "69126",
        "addr:street": "Im Bosseldorn",
        "name": "The Rock Shop",
        "opening_hours": "Mo-Fr 13:00-18:00; Sa 13:00-16:00",
        "shop": "clothes",
        "website": "https://www.therockshop.de"
      },
      "geometry": {
        "type": "Point",
        "coordinates": [
          8.6786024,
          49.3863177
        ]
      },
      "id": "node/1426035596"
    },
    {
      "type": "Feature",
      "properties": {
        "@id": "node/1532732055",
        "addr:city": "Heidelberg",
        "addr:postcode": "69126",
        "addr:street": "Boxbergring",
        "name": "Extra Markt",
        "opening_hours": "Mo-Sa 08:00-18:30",
        "shop": "supermarket",
        "wheelchair": "yes"
      },
      "geometry": {
        "type": "Point",
        "coordinates": [
          8.7029979,
          49.3747776
        ]
      },
      "id": "node/1532732055"
    },
    {
      "type": "Feature",
      "properties": {
        "@id": "node/1537481718",
        "brand": "Penny",
        "brand:wikidata": "Q284688",
        "brand:wikipedia": "en:Penny (supermarket)",
        "lastcheck": "2017-08-08",
        "name": "Penny",
        "opening_hours": "Mo-Sa 07:30-22:00",
        "shop": "supermarket",
        "wheelchair": "yes"
      },
      "geometry": {
        "type": "Point",
        "coordinates": [
          8.6954751,
          49.4089407
        ]
      },
      "id": "node/1537481718"
    },
    {
      "type": "Feature",
      "properties": {
        "@id": "node/1537481721",
        "name": "Rituals",
        "shop": "clothes",
        "wheelchair": "yes"
      },
      "geometry": {
        "type": "Point",
        "coordinates": [
          8.6956528,
          49.4102237
        ]
      },
      "id": "node/1537481721"
    },
    {
      "type": "Feature",
      "properties": {
        "@id": "node/1537481767",
        "brand": "Tezenis",
        "brand:wikidata": "Q28056374",
        "name": "Tezenis",
        "old_name": "Moments",
        "phone": "+49 6221 4555177",
        "shop": "clothes",
        "website": "https://de.tezenis.com/store/HEIDELBERG-HAUPTSTRASSE-21/7219.uts?storeId=7219",
        "wheelchair": "no"
      },
      "geometry": {
        "type": "Point",
        "coordinates": [
          8.6951727,
          49.4101662
        ]
      },
      "id": "node/1537481767"
    },
    {
      "type": "Feature",
      "properties": {
        "@id": "node/1539699636",
        "brand": "Betty Barclay",
        "brand:wikidata": "Q850250",
        "brand:wikipedia": "de:Betty Barclay",
        "lastcheck": "2017-08-14",
        "name": "Betty Barclay",
        "old_name": "Hallhuber",
        "opening_hours": "Mo-Sa 10:00-19:00",
        "shop": "clothes",
        "wheelchair": "limited"
      },
      "geometry": {
        "type": "Point",
        "coordinates": [
          8.6988821,
          49.4105992
        ]
      },
      "id": "node/1539699636"
    },
    {
      "type": "Feature",
      "properties": {
        "@id": "node/1539714544",
        "lastcheck": "2017-08-14",
        "name": "Olymp",
        "old_name": "Lavazza",
        "opening_hours": "Mo-Sa 10:00-19:00",
        "phone": "+49 6221 6514443",
        "shop": "clothes",
        "website": "http://company.olymp.com/de/bezugsquellen/olymp-stores#gMap",
        "wheelchair": "yes"
      },
      "geometry": {
        "type": "Point",
        "coordinates": [
          8.7013955,
          49.4109865
        ]
      },
      "id": "node/1539714544"
    },
    {
      "type": "Feature",
      "properties": {
        "@id": "node/1539741096",
        "addr:city": "Heidelberg",
        "addr:housenumber": "110",
        "addr:postcode": "69117",
        "addr:street": "Hauptstraße",
        "brand": "Tegut",
        "brand:wikidata": "Q1547993",
        "brand:wikipedia": "en:Tegut",
        "level": "0",
        "name": "Tegut",
        "opening_hours": "Mo-Sa 07:00-21:00",
        "organic": "yes",
        "shop": "supermarket",
        "start_date": "2019-09-19",
        "wheelchair": "yes"
      },
      "geometry": {
        "type": "Point",
        "coordinates": [
          8.7040113,
          49.4113305
        ]
      },
      "id": "node/1539741096"
    },
    {
      "type": "Feature",
      "properties": {
        "@id": "node/1539815134",
        "name": "I Am - Designmanufaktur",
        "opening_hours": "Mo-Sa 10:00-19:00",
        "phone": "+49 6221 6555055",
        "shop": "clothes",
        "website": "http://www.i-am-hd.de/",
        "wheelchair": "limited"
      },
      "geometry": {
        "type": "Point",
        "coordinates": [
          8.7076126,
          49.4116956
        ]
      },
      "id": "node/1539815134"
    },
    {
      "type": "Feature",
      "properties": {
        "@id": "node/1637576943",
        "addr:city": "Heidelberg",
        "addr:country": "DE",
        "addr:housenumber": "73",
        "addr:postcode": "69115",
        "addr:street": "Rohrbacher Straße",
        "brand": "Alnatura",
        "brand:wikidata": "Q876811",
        "brand:wikipedia": "en:Alnatura",
        "check_date:opening_hours": "2022-06-14",
        "contact:fax": "+49 (0)62217278323",
        "contact:phone": "+49 (0)62217278324",
        "contact:website": "http://www.alnatura.de/",
        "name": "Alnatura",
        "note": "supermarket",
        "opening_hours": "Mo-Sa 08:00-20:00",
        "organic": "only",
        "shop": "supermarket",
        "toilets:wheelchair": "no",
        "wheelchair": "yes"
      },
      "geometry": {
        "type": "Point",
        "coordinates": [
          8.6915435,
          49.4017125
        ]
      },
      "id": "node/1637576943"
    },
    {
      "type": "Feature",
      "properties": {
        "@id": "node/1650741739",
        "addr:city": "Heidelberg",
        "addr:country": "DE",
        "addr:housenumber": "36",
        "addr:postcode": "69126",
        "addr:street": "Turnerstraße",
        "name": "effata Weltladen",
        "opening_hours": "Tu-Sa 10:00-13:00, Tu,Th,Fr 14:00-18:00",
        "shop": "convenience",
        "website": "http://www.effata.de",
        "wheelchair": "no"
      },
      "geometry": {
        "type": "Point",
        "coordinates": [
          8.688929,
          49.3883034
        ]
      },
      "id": "node/1650741739"
    },
    {
      "type": "Feature",
      "properties": {
        "@id": "node/1711475390",
        "addr:city": "Heidelberg",
        "addr:housenumber": "35",
        "addr:postcode": "69124",
        "addr:street": "Breslauer Straße",
        "name": "La Biosthetique Karin Bolz",
        "opening_hours": "Sa 09:00-14:00; Mo 09:00-15:30; Tu,We 09:00-18:00; Fr 09:00-19:00",
        "operator": "Karin Bolz",
        "phone": "+49 6221 781325",
        "shop": "hairdresser",
        "website": "https://www.karin-bolz.de/",
        "wheelchair": "limited"
      },
      "geometry": {
        "type": "Point",
        "coordinates": [
          8.6675022,
          49.384546
        ]
      },
      "id": "node/1711475390"
    },
    {
      "type": "Feature",
      "properties": {
        "@id": "node/1727214075",
        "addr:city": "Heidelberg",
        "addr:country": "DE",
        "addr:housenumber": "62",
        "addr:postcode": "69115",
        "addr:street": "Kurfürsten-Anlage",
        "name": "Meister Friseur",
        "opening_hours": "Tu-Fr 09:00-19:00; Sa 09:00-17:00",
        "phone": "+49 6221 602292",
        "shop": "hairdresser",
        "wheelchair": "limited"
      },
      "geometry": {
        "type": "Point",
        "coordinates": [
          8.6754055,
          49.4054526
        ]
      },
      "id": "node/1727214075"
    },
    {
      "type": "Feature",
      "properties": {
        "@id": "node/1767914862",
        "addr:city": "Heidelberg",
        "addr:housenumber": "84",
        "addr:postcode": "69121",
        "addr:street": "Dossenheimer Landstraße",
        "addr:suburb": "Handschuhsheim",
        "check_date:opening_hours": "2021-02-24",
        "contact:fax": "+49 6221 409843",
        "contact:phone": "+49 6221 400858",
        "name": "Eva's Lädchen",
        "opening_hours": "Mo,We,Fr 14:00-18:30; Th 09:00-13:00",
        "shop": "convenience",
        "wheelchair": "limited"
      },
      "geometry": {
        "type": "Point",
        "coordinates": [
          8.682692,
          49.4314726
        ]
      },
      "id": "node/1767914862"
    },
    {
      "type": "Feature",
      "properties": {
        "@id": "node/1779953548",
        "addr:city": "Heidelberg",
        "addr:housenumber": "19",
        "addr:postcode": "69115",
        "addr:street": "Römerstraße",
        "amenity": "fast_food",
        "check_date:opening_hours": "2022-05-19",
        "contact:fax": "+49 6221 9851005",
        "contact:phone": "+49 6221 9851003;+49 6221 9851004",
        "cuisine": "indian",
        "diet:vegan": "yes",
        "diet:vegetarian": "yes",
        "indoor_seating": "yes",
        "name": "Indian Curry",
        "opening_hours": "Mo-Sa 11:00-22:00; Su 12:00-22:00; PH 12:00-22:00",
        "outdoor_seating": "yes",
        "shop": "convenience",
        "website": "http://www.indian-curry.de",
        "wheelchair": "yes"
      },
      "geometry": {
        "type": "Point",
        "coordinates": [
          8.6848226,
          49.4042782
        ]
      },
      "id": "node/1779953548"
    },
    {
      "type": "Feature",
      "properties": {
        "@id": "node/2112150878",
        "name": "KFZ-Werkstatt Karnahl",
        "shop": "car_repair",
        "wheelchair": "limited"
      },
      "geometry": {
        "type": "Point",
        "coordinates": [
          8.6667522,
          49.377014
        ]
      },
      "id": "node/2112150878"
    },
    {
      "type": "Feature",
      "properties": {
        "@id": "node/2144473976",
        "addr:city": "Heidelberg",
        "addr:country": "DE",
        "addr:housenumber": "21",
        "addr:postcode": "69115",
        "addr:street": "Eppelheimer Straße",
        "name": "Serpa Markt",
        "opening_hours": "Mo-Fr 08:00-19:30; Sa 08:00-20:00",
        "shop": "supermarket",
        "wheelchair": "limited"
      },
      "geometry": {
        "type": "Point",
        "coordinates": [
          8.6605012,
          49.4056236
        ]
      },
      "id": "node/2144473976"
    },
    {
      "type": "Feature",
      "properties": {
        "@id": "node/2188940877",
        "addr:city": "Heidelberg",
        "addr:housenumber": "98",
        "addr:postcode": "69121",
        "addr:street": "Dossenheimer Landstraße",
        "name": "Modehaus Niebel",
        "opening_hours": "Mo-Fr 10:00-18:30; Sa 10:00-17:00",
        "shop": "clothes",
        "website": "https://niebelmode.de",
        "wheelchair": "limited"
      },
      "geometry": {
        "type": "Point",
        "coordinates": [
          8.6827591,
          49.4324318
        ]
      },
      "id": "node/2188940877"
    },
    {
      "type": "Feature",
      "properties": {
        "@id": "node/2251270451",
        "addr:city": "Heidelberg",
        "addr:country": "DE",
        "addr:housenumber": "37",
        "addr:postcode": "69118",
        "addr:street": "Kleingemünder Straße",
        "name": "BioBasis",
        "opening_hours": "Mo,Tu,Th,Fr 09:00-13:00,15:00-18:00; We,Sa 09:00-13:00",
        "organic": "only",
        "shop": "convenience",
        "website": "http://www.biobasis-hd.de",
        "wheelchair": "yes"
      },
      "geometry": {
        "type": "Point",
        "coordinates": [
          8.761079,
          49.4178006
        ]
      },
      "id": "node/2251270451"
    },
    {
      "type": "Feature",
      "properties": {
        "@id": "node/2251270667",
        "addr:city": "Heidelberg",
        "addr:housenumber": "37",
        "addr:postcode": "69118",
        "addr:street": "Kleingemünder Straße",
        "name": "Avant Garde",
        "opening_hours": "Mo 11:00-18:00; Tu-Fr 09:00-18:30; Sa 09:00-14:30",
        "shop": "hairdresser",
        "wheelchair": "yes"
      },
      "geometry": {
        "type": "Point",
        "coordinates": [
          8.7608601,
          49.4178458
        ]
      },
      "id": "node/2251270667"
    },
    {
      "type": "Feature",
      "properties": {
        "@id": "node/2335976194",
        "addr:city": "Heidelberg",
        "addr:housenumber": "27",
        "addr:postcode": "69115",
        "addr:street": "Eppelheimer Straße",
        "car:repair": "service",
        "car:tyres": "yes",
        "email": "ralf.schoenfeld@pischinger-online.de",
        "name": "point S Reifenservice",
        "opening_hours": "Mo-Fr 08:00-18:00; Sa 08:00-12:00",
        "phone": "+49 6221 28201",
        "shop": "car_repair"
      },
      "geometry": {
        "type": "Point",
        "coordinates": [
          8.6597265,
          49.4056713
        ]
      },
      "id": "node/2335976194"
    },
    {
      "type": "Feature",
      "properties": {
        "@id": "node/2386262867",
        "addr:city": "Heidelberg",
        "addr:housenumber": "5",
        "addr:postcode": "69126",
        "addr:street": "Forum",
        "name": "Nahkauf",
        "opening_hours": "Mo-Sa 08:00-20:00",
        "shop": "supermarket",
        "website": "http://www.aqb-online.de/index.php?menuid=2",
        "wheelchair": "yes"
      },
      "geometry": {
        "type": "Point",
        "coordinates": [
          8.7046318,
          49.3641182
        ]
      },
      "id": "node/2386262867"
    },
    {
      "type": "Feature",
      "properties": {
        "@id": "node/2390729548",
        "brand": "Napapijri",
        "brand:wikidata": "Q2782017",
        "brand:wikipedia": "en:Napapijri",
        "check_date:opening_hours": "2022-10-24",
        "contact:facebook": "https://www.facebook.com/NapapijriHeidelberg/",
        "lastcheck": "2017-08-14",
        "name": "Napapijri",
        "opening_hours": "Mo-Sa 10:00-19:00",
        "phone": "+49 6221 24411",
        "shop": "clothes",
        "wheelchair": "no"
      },
      "geometry": {
        "type": "Point",
        "coordinates": [
          8.7029832,
          49.4112077
        ]
      },
      "id": "node/2390729548"
    },
    {
      "type": "Feature",
      "properties": {
        "@id": "node/2393199485",
        "addr:city": "Heidelberg",
        "addr:country": "DE",
        "addr:housenumber": "53",
        "addr:postcode": "69121",
        "addr:street": "Dossenheimer Landstraße",
        "check_date:opening_hours": "2021-02-19",
        "email": "info@haarlass-friseur.de",
        "name": "Haarlass",
        "opening_hours": "Mo-Fr 09:00-19:00; Sa 09:00-15:00",
        "phone": "+49 6221 5993737",
        "shop": "hairdresser",
        "website": "https://www.haarlass-friseur.de/",
        "wheelchair": "no"
      },
      "geometry": {
        "type": "Point",
        "coordinates": [
          8.68257,
          49.429172
        ]
      },
      "id": "node/2393199485"
    },
    {
      "type": "Feature",
      "properties": {
        "@id": "node/2411540617",
        "addr:city": "Heidelberg",
        "addr:country": "DE",
        "addr:housenumber": "48",
        "addr:postcode": "69117",
        "addr:street": "Friedrich-Ebert-Anlage",
        "name": "Der Frisörladen",
        "shop": "hairdresser",
        "wheelchair": "no"
      },
      "geometry": {
        "type": "Point",
        "coordinates": [
          8.7016184,
          49.4086905
        ]
      },
      "id": "node/2411540617"
    },
    {
      "type": "Feature",
      "properties": {
        "@id": "node/2501656288",
        "lastcheck": "2017-08-08",
        "name": "Barber Shop",
        "phone": "+496221616162",
        "shop": "hairdresser",
        "source": "local knowledge",
        "toilets:wheelchair": "no",
        "wheelchair": "no"
      },
      "geometry": {
        "type": "Point",
        "coordinates": [
          8.7081423,
          49.4122689
        ]
      },
      "id": "node/2501656288"
    },
    {
      "type": "Feature",
      "properties": {
        "@id": "node/2501685388",
        "addr:housenumber": "1",
        "addr:postcode": "69121",
        "addr:street": "Hans-Thoma-Straße",
        "name": "Wahl G. Frisierstube",
        "opening_hours": "Tu,Th,Fr 16:00-18:00, Tu,Th-Sa 10:00-12:00",
        "phone": "+496221401285",
        "shop": "hairdresser",
        "source": "local knowledge",
        "wheelchair": "limited"
      },
      "geometry": {
        "type": "Point",
        "coordinates": [
          8.6817373,
          49.4281369
        ]
      },
      "id": "node/2501685388"
    },
    {
      "type": "Feature",
      "properties": {
        "@id": "node/2501697545",
        "addr:city": "Heidelberg",
        "addr:housenumber": "7",
        "addr:postcode": "69121",
        "addr:street": "Mühlingstraße",
        "name": "Friseursalon Wagner",
        "opening_hours": "\"Öffnung nach Vereinbarung unter 06221 480815\"",
        "shop": "hairdresser",
        "source": "local knowledge",
        "wheelchair": "yes"
      },
      "geometry": {
        "type": "Point",
        "coordinates": [
          8.6814208,
          49.4295439
        ]
      },
      "id": "node/2501697545"
    },
    {
      "type": "Feature",
      "properties": {
        "@id": "node/2506127812",
        "addr:city": "Heidelberg",
        "addr:country": "DE",
        "addr:housenumber": "17",
        "addr:postcode": "69118",
        "addr:street": "Kleingemünder Straße",
        "check_date:opening_hours": "2022-06-25",
        "name": "Gscheidle",
        "opening_hours": "Tu-Fr 08:00-12:00,14:00-18:00; Sa 08:00-13:00",
        "phone": "+49 6221 802678",
        "shop": "hairdresser",
        "wheelchair": "yes"
      },
      "geometry": {
        "type": "Point",
        "coordinates": [
          8.7585438,
          49.4180136
        ]
      },
      "id": "node/2506127812"
    },
    {
      "type": "Feature",
      "properties": {
        "@id": "node/2511388770",
        "addr:city": "Heidelberg",
        "addr:housenumber": "1",
        "addr:postcode": "69126",
        "addr:street": "Rathausstraße",
        "name": "hairclub10",
        "opening_hours": "Mo-Fr 09:00-19:00; Sa 09:00-15:00",
        "shop": "hairdresser",
        "toilets:wheelchair": "no",
        "website": "http://hairclub10.de",
        "wheelchair": "yes"
      },
      "geometry": {
        "type": "Point",
        "coordinates": [
          8.6879553,
          49.3802089
        ]
      },
      "id": "node/2511388770"
    },
    {
      "type": "Feature",
      "properties": {
        "@id": "node/2525915512",
        "addr:city": "Heidelberg",
        "addr:housenumber": "39-43",
        "addr:postcode": "69117",
        "addr:street": "Hauptstraße",
        "check_date:opening_hours": "2022-10-25",
        "name": "Henschel",
        "old_name": "Kraus",
        "opening_hours": "Mo-Sa 10:00-19:00",
        "shop": "clothes",
        "website": "https://henschel-heidelberg.de",
        "wheelchair": "yes"
      },
      "geometry": {
        "type": "Point",
        "coordinates": [
          8.6969485,
          49.4104115
        ]
      },
      "id": "node/2525915512"
    },
    {
      "type": "Feature",
      "properties": {
        "@id": "node/2610389005",
        "name": "Florian Reiff",
        "opening_hours": "Tu-Th 09:00-18:00; Fr 09:00-20:00; Sa 09:00-16:00; Mo off",
        "shop": "hairdresser",
        "wheelchair": "no"
      },
      "geometry": {
        "type": "Point",
        "coordinates": [
          8.6923656,
          49.4174146
        ]
      },
      "id": "node/2610389005"
    },
    {
      "type": "Feature",
      "properties": {
        "@id": "node/2610389105",
        "addr:city": "Heidelberg",
        "addr:country": "DE",
        "addr:housenumber": "1",
        "addr:postcode": "69120",
        "addr:street": "Brückenstraße",
        "name": "Roland Curth",
        "opening_hours": "Mo 09:00-18:00; Tu-Fr 08:00-19:00; Sa 08:00-15:30",
        "shop": "hairdresser",
        "website": "https://curthhair.de/",
        "wheelchair": "no"
      },
      "geometry": {
        "type": "Point",
        "coordinates": [
          8.6920882,
          49.4136482
        ]
      },
      "id": "node/2610389105"
    },
    {
      "type": "Feature",
      "properties": {
        "@id": "node/2612076369",
        "addr:city": "Heidelberg",
        "addr:country": "DE",
        "addr:housenumber": "9",
        "addr:postcode": "69115",
        "addr:street": "Sofienstraße",
        "name": "mod's hair BASIC",
        "shop": "hairdresser",
        "website": "https://www.modshair-heidelberg-basic.de/",
        "wheelchair": "yes"
      },
      "geometry": {
        "type": "Point",
        "coordinates": [
          8.6937168,
          49.4101969
        ]
      },
      "id": "node/2612076369"
    },
    {
      "type": "Feature",
      "properties": {
        "@id": "node/2630545212",
        "addr:city": "Heidelberg",
        "addr:country": "DE",
        "addr:housenumber": "91",
        "addr:postcode": "69126",
        "addr:street": "Karlsruher Straße",
        "name": "Hair & Beauty Lounge",
        "shop": "hairdresser"
      },
      "geometry": {
        "type": "Point",
        "coordinates": [
          8.6880306,
          49.3802705
        ]
      },
      "id": "node/2630545212"
    },
    {
      "type": "Feature",
      "properties": {
        "@id": "node/2640445894",
        "addr:city": "Heidelberg",
        "addr:country": "DE",
        "addr:housenumber": "1",
        "addr:postcode": "69126",
        "addr:street": "Punkerstraße",
        "name": "Andreas Ullmer",
        "shop": "hairdresser",
        "website": "http://www.friseur-ullmer.de"
      },
      "geometry": {
        "type": "Point",
        "coordinates": [
          8.6901065,
          49.3827546
        ]
      },
      "id": "node/2640445894"
    },
    {
      "type": "Feature",
      "properties": {
        "@id": "node/2640446053",
        "addr:city": "Heidelberg",
        "addr:country": "DE",
        "addr:housenumber": "14",
        "addr:postcode": "69126",
        "addr:street": "Herrenwiesenstraße",
        "name": "Salon Wengerek",
        "opening_hours:signed": "no",
        "shop": "hairdresser"
      },
      "geometry": {
        "type": "Point",
        "coordinates": [
          8.6902151,
          49.3811342
        ]
      },
      "id": "node/2640446053"
    },
    {
      "type": "Feature",
      "properties": {
        "@id": "node/2715831818",
        "addr:housenumber": "20",
        "addr:postcode": "69120",
        "addr:street": "Brückenstraße",
        "check_date:opening_hours": "2021-11-02",
        "fax": "+49 6221 413961",
        "name": "Aura",
        "opening_hours": "Mo-Fr 10:00-19:00; Sa 10:00-16:00",
        "phone": "+49 6221 410500",
        "shop": "clothes",
        "website": "http://www.auramode.de",
        "wheelchair": "no"
      },
      "geometry": {
        "type": "Point",
        "coordinates": [
          8.6923117,
          49.4150586
        ]
      },
      "id": "node/2715831818"
    },
    {
      "type": "Feature",
      "properties": {
        "@id": "node/2738569313",
        "brand": "pitstop",
        "brand:wikidata": "Q1310014",
        "brand:wikipedia": "de:Pitstop (Werkstattkette)",
        "name": "pitstop",
        "opening_hours": "Mo-Fr 08:00-18:00; Sa 08:00-13:00",
        "shop": "car_repair",
        "website": "https://www.pitstop.de/",
        "wheelchair": "limited"
      },
      "geometry": {
        "type": "Point",
        "coordinates": [
          8.6731483,
          49.4081373
        ]
      },
      "id": "node/2738569313"
    },
    {
      "type": "Feature",
      "properties": {
        "@id": "node/2754781606",
        "addr:city": "Heidelberg",
        "addr:housenumber": "1",
        "addr:postcode": "69117",
        "addr:street": "Friedrich-Ebert-Anlage",
        "clothes": "women;men;children;babies",
        "name": "Glore",
        "opening_hours": "Mo-Fr 10:30-19:00, Sa 10:30-18:00",
        "phone": "+49 (0)6221 91 57 000",
        "shop": "clothes",
        "source": "local knowledge",
        "website": "https://www.glore.de/Concept-Stores/Heidelberg/",
        "wheelchair": "limited"
      },
      "geometry": {
        "type": "Point",
        "coordinates": [
          8.6948392,
          49.4077791
        ]
      },
      "id": "node/2754781606"
    },
    {
      "type": "Feature",
      "properties": {
        "@id": "node/2788863554",
        "addr:city": "Heidelberg",
        "addr:housenumber": "27",
        "addr:postcode": "69126",
        "addr:street": "Heinrich-Fuchs-Straße",
        "email": "friseur-salon-nouveau@outlook.com",
        "name": "Friseursalon Nouveau",
        "opening_hours": "Tu-Fr 09:00-12:30, 14:30-19:00; Sa 09:00-14:00",
        "phone": "+49 6221 332146",
        "shop": "hairdresser",
        "website": "https://www.nouveaufriseursalon.de",
        "wheelchair": "limited"
      },
      "geometry": {
        "type": "Point",
        "coordinates": [
          8.6846667,
          49.3797822
        ]
      },
      "id": "node/2788863554"
    },
    {
      "type": "Feature",
      "properties": {
        "@id": "node/2817447596",
        "addr:city": "Heidelberg",
        "addr:housenumber": "21-23",
        "addr:postcode": "69115",
        "addr:street": "Kurfürsten-Anlage",
        "check_date:opening_hours": "2022-05-31",
        "diet:kosher": "no",
        "name": "Scheck-In-Center",
        "opening_hours": "Mo-Sa 07:00-22:00",
        "opening_hours:covid19": "Mo-Sa 08:00-22:00",
        "shop": "supermarket",
        "toilets:wheelchair": "yes",
        "website": "https://www.scheck-in-center.de/html/content/heidelberg.html",
        "wheelchair": "yes"
      },
      "geometry": {
        "type": "Point",
        "coordinates": [
          8.6868261,
          49.4058576
        ]
      },
      "id": "node/2817447596"
    },
    {
      "type": "Feature",
      "properties": {
        "@id": "node/2820735909",
        "addr:city": "Heidelberg",
        "addr:housenumber": "21",
        "addr:postcode": "69115",
        "addr:street": "Schillerstraße",
        "name": "Freitagskind",
        "opening_hours": "Mo-Fr 10:00-18:00; Sa 10:00-13:00",
        "second_hand": "yes",
        "shop": "clothes",
        "toilets:wheelchair": "no",
        "website": "https://www.freitagskind.de/",
        "wheelchair": "limited"
      },
      "geometry": {
        "type": "Point",
        "coordinates": [
          8.6867714,
          49.4007448
        ]
      },
      "id": "node/2820735909"
    },
    {
      "type": "Feature",
      "properties": {
        "@id": "node/2821554445",
        "name": "mod's hair",
        "opening_hours:signed": "no",
        "shop": "hairdresser",
        "website": "https://www.modshair-heidelberg.de/",
        "wheelchair": "no"
      },
      "geometry": {
        "type": "Point",
        "coordinates": [
          8.6918892,
          49.4161833
        ]
      },
      "id": "node/2821554445"
    },
    {
      "type": "Feature",
      "properties": {
        "@id": "node/2865558577",
        "addr:city": "Heidelberg",
        "addr:country": "DE",
        "addr:housenumber": "40",
        "addr:postcode": "69115",
        "addr:street": "Bahnhofstraße",
        "brand": "Top Hair",
        "brand:wikidata": "Q62523343",
        "name": "Top Hair",
        "opening_hours": "Mo-Fr 10:00-18:00; Sa 10:00-16:00",
        "shop": "hairdresser",
        "wheelchair": "yes"
      },
      "geometry": {
        "type": "Point",
        "coordinates": [
          8.6864064,
          49.4054658
        ]
      },
      "id": "node/2865558577"
    },
    {
      "type": "Feature",
      "properties": {
        "@id": "node/2884170741",
        "brand": "Hallhuber",
        "brand:wikidata": "Q1571714",
        "brand:wikipedia": "de:Hallhuber (Bekleidungshaus)",
        "name": "Hallhuber",
        "old_name": "Christ",
        "opening_hours": "Mo-Sa 10:00-20:00",
        "shop": "clothes",
        "start_date": "2017-02",
        "website": "https://www.hallhuber.com/de/jobs/retail/heidelberg",
        "wheelchair": "no"
      },
      "geometry": {
        "type": "Point",
        "coordinates": [
          8.6950375,
          49.4100222
        ]
      },
      "id": "node/2884170741"
    },
    {
      "type": "Feature",
      "properties": {
        "@id": "node/2889296601",
        "lastcheck": "2017-08-14",
        "name": "Max & Co",
        "opening_hours": "Mo-Fr 10:00-19:00;Sa 10:00-18:00",
        "phone": "+49 6221 659666",
        "shop": "clothes",
        "website": "https://pt.maxandco.com/store/20515",
        "wheelchair": "no"
      },
      "geometry": {
        "type": "Point",
        "coordinates": [
          8.7001453,
          49.4107979
        ]
      },
      "id": "node/2889296601"
    },
    {
      "type": "Feature",
      "properties": {
        "@id": "node/2889298701",
        "brand": "Marc O'Polo",
        "brand:wikidata": "Q1892752",
        "brand:wikipedia": "en:Marc O'Polo",
        "lastcheck": "2017-08-14",
        "name": "Marc O'Polo",
        "opening_hours": "Mo-Sa 10:00-19:00",
        "shop": "clothes",
        "wheelchair": "yes"
      },
      "geometry": {
        "type": "Point",
        "coordinates": [
          8.7016302,
          49.4110215
        ]
      },
      "id": "node/2889298701"
    },
    {
      "type": "Feature",
      "properties": {
        "@id": "node/2943107767",
        "email": "hairandbeauty-hd@gmx.de",
        "name": "Hair and Beauty",
        "old_name": "Cut House",
        "opening_hours": "Tu-Fr 08:30-18:00;Sa 08:00-14:00",
        "phone": "+49 6221 6732770",
        "shop": "hairdresser",
        "website": "http://www.hair-and-beauty-heidelberg.de/",
        "wheelchair": "no"
      },
      "geometry": {
        "type": "Point",
        "coordinates": [
          8.646062,
          49.4286457
        ]
      },
      "id": "node/2943107767"
    },
    {
      "type": "Feature",
      "properties": {
        "@id": "node/2943381888",
        "name": "B-Moden",
        "opening_hours": "Tu-Fr 9:30-18:00;Sa 9:30-13:00",
        "phone": "+49 6221 831316",
        "shop": "clothes",
        "wheelchair": "no"
      },
      "geometry": {
        "type": "Point",
        "coordinates": [
          8.6494141,
          49.4235351
        ]
      },
      "id": "node/2943381888"
    },
    {
      "type": "Feature",
      "properties": {
        "@id": "node/2943381891",
        "name": "Haarstudio Margarete",
        "opening_hours": "Tu,Th,Fr 10:00-18:00; We,Sa 09:00-13:00",
        "shop": "hairdresser",
        "wheelchair": "limited"
      },
      "geometry": {
        "type": "Point",
        "coordinates": [
          8.6496365,
          49.4236196
        ]
      },
      "id": "node/2943381891"
    },
    {
      "type": "Feature",
      "properties": {
        "@id": "node/2945288898",
        "addr:city": "Heidelberg",
        "addr:housenumber": "5",
        "addr:postcode": "69123",
        "addr:street": "Wundtstraße",
        "email": "frisierstube@web.de",
        "name": "Gertruds Frisierstube",
        "opening_hours": "Mo-Sa 08:30-18:00; Sa 08:00-13:00",
        "operator": "Gertrud Wolf",
        "phone": "+49 6221 834835",
        "shop": "hairdresser",
        "website": "http://www.frisierstube.de/",
        "wheelchair": "no"
      },
      "geometry": {
        "type": "Point",
        "coordinates": [
          8.650641,
          49.4236091
        ]
      },
      "id": "node/2945288898"
    },
    {
      "type": "Feature",
      "properties": {
        "@id": "node/2945388119",
        "email": "tommaso.critelli@t-online.de",
        "fax": "+49 6221 839355",
        "name": "Frisier Domus",
        "opening_hours": "Tu-Fr 7:30-18:00; Th 7:30-20:00; Sa 8:00-14:00",
        "opening_hours:covid19": "closed",
        "payment:cash": "yes",
        "payment:coins": "yes",
        "payment:girocard": "yes",
        "payment:girocard_contactless": "yes",
        "phone": "+49 6221 831299",
        "shop": "hairdresser",
        "stroller": "no",
        "website": "http://www.frisier-domus.de/",
        "wheelchair": "no"
      },
      "geometry": {
        "type": "Point",
        "coordinates": [
          8.6515671,
          49.4201083
        ]
      },
      "id": "node/2945388119"
    },
    {
      "type": "Feature",
      "properties": {
        "@id": "node/2947036240",
        "addr:city": "Heidelberg",
        "addr:housenumber": "177",
        "addr:postcode": "69123",
        "addr:street": "Mannheimer Straße",
        "air_conditioning": "yes",
        "brand": "Netto Marken-Discount",
        "brand:wikidata": "Q879858",
        "brand:wikipedia": "de:Netto Marken-Discount",
        "building": "yes",
        "internet_access": "wlan",
        "internet_access:fee": "customers",
        "name": "Netto Marken-Discount",
        "opening_hours": "Mo-Sa 07:00-22:00",
        "opening_hours:covid19": "open",
        "operator": "Netto Marken-Discount",
        "organic": "yes",
        "payment:apple_pay": "yes",
        "payment:cash": "yes",
        "payment:coins": "yes",
        "payment:contactless": "yes",
        "payment:credit_cards": "yes",
        "phone": "+49 800 2000015",
        "shop": "supermarket",
        "website": "netto-online.de",
        "wheelchair": "yes"
      },
      "geometry": {
        "type": "Point",
        "coordinates": [
          8.6518513,
          49.4188757
        ]
      },
      "id": "node/2947036240"
    },
    {
      "type": "Feature",
      "properties": {
        "@id": "node/3013057218",
        "name": "Friseur Stern",
        "opening_hours": "Tu,We 10:00-18:30; Th,Fr 09:00-18:30; Sa 09:00-15:00",
        "shop": "hairdresser",
        "wheelchair": "yes"
      },
      "geometry": {
        "type": "Point",
        "coordinates": [
          8.6882003,
          49.4242366
        ]
      },
      "id": "node/3013057218"
    },
    {
      "type": "Feature",
      "properties": {
        "@id": "node/3143329633",
        "addr:city": "Heidelberg",
        "addr:housenumber": "20",
        "addr:postcode": "69117",
        "addr:street": "Plöck",
        "contact:phone": "+49 6221 182127",
        "contact:website": "https://the-flame.business.site/",
        "lastcheck": "2020-04-14",
        "name": "The Flame",
        "opening_hours": "Mo-Fr 11:30-19:00; Sa 11:30-18:00",
        "shop": "clothes",
        "wheelchair": "no"
      },
      "geometry": {
        "type": "Point",
        "coordinates": [
          8.6972339,
          49.4089015
        ]
      },
      "id": "node/3143329633"
    },
    {
      "type": "Feature",
      "properties": {
        "@id": "node/3150887866",
        "addr:city": "Heidelberg",
        "addr:housenumber": "56",
        "addr:postcode": "69115",
        "addr:street": "Langer Anger",
        "check_date:opening_hours": "2022-03-14",
        "name": "Viani's Friseure",
        "opening_hours": "Mo-Fr 09:00-19:00; Sa 09:00-16:00",
        "shop": "hairdresser",
        "website": "http://www.vianis-friseure.de",
        "wheelchair": "yes"
      },
      "geometry": {
        "type": "Point",
        "coordinates": [
          8.6667002,
          49.4022297
        ]
      },
      "id": "node/3150887866"
    },
    {
      "type": "Feature",
      "properties": {
        "@id": "node/3246542444",
        "name": "Friseur Mehmet",
        "shop": "hairdresser"
      },
      "geometry": {
        "type": "Point",
        "coordinates": [
          8.6824075,
          49.3631646
        ]
      },
      "id": "node/3246542444"
    },
    {
      "type": "Feature",
      "properties": {
        "@id": "node/3303782102",
        "addr:city": "Heidelberg",
        "addr:housenumber": "40",
        "addr:postcode": "69117",
        "addr:street": "Untere Neckarstraße",
        "name": "Schnittmodul",
        "note": "Termine nur nach Vereinbarung. Zwei Stufen am Eingang.",
        "opening_hours": "Mo-Fr \"nach Vereinbarung\"",
        "operator": "Friseurmeisterin Melanie Rösch",
        "phone": "+4962216548770",
        "shop": "hairdresser",
        "website": "http://www.schnittmodul.de/",
        "wheelchair": "limited"
      },
      "geometry": {
        "type": "Point",
        "coordinates": [
          8.6994954,
          49.4119304
        ]
      },
      "id": "node/3303782102"
    },
    {
      "type": "Feature",
      "properties": {
        "@id": "node/3343695712",
        "addr:city": "Heidelberg",
        "addr:housenumber": "1",
        "addr:postcode": "69126",
        "addr:street": "Hertzstraße",
        "brand": "Ernsting's family",
        "brand:wikidata": "Q1361016",
        "brand:wikipedia": "de:Ernsting’s family",
        "level": "0",
        "name": "Ernsting's family",
        "opening_hours": "Mo-Sa 09:00-20:00",
        "second_hand": "no",
        "shop": "clothes",
        "website": "https://www.ernstings-family.de/filialen/1326/hertzstra%C3%9Fe-1-69126-heidelberg",
        "wheelchair": "yes"
      },
      "geometry": {
        "type": "Point",
        "coordinates": [
          8.6857923,
          49.367386
        ]
      },
      "id": "node/3343695712"
    },
    {
      "type": "Feature",
      "properties": {
        "@id": "node/3392886895",
        "addr:city": "Heidelberg",
        "addr:postcode": "69117",
        "addr:street": "Steingasse",
        "description": "Convenience Store, Tourism Stuff",
        "name:signed": "no",
        "shop": "convenience",
        "toilets:wheelchair": "no",
        "wheelchair": "limited"
      },
      "geometry": {
        "type": "Point",
        "coordinates": [
          8.7096733,
          49.4130068
        ]
      },
      "id": "node/3392886895"
    },
    {
      "type": "Feature",
      "properties": {
        "@id": "node/3435212752",
        "addr:city": "Heidelberg",
        "addr:housenumber": "14",
        "addr:postcode": "69126",
        "addr:street": "Boxbergring",
        "designation": "Friseur",
        "name": "Friseurstudio Jasmin",
        "shop": "hairdresser",
        "source": "http://www.friseurstudio-jasmin.de/",
        "website": "http://www.friseurstudio-jasmin.de/",
        "wheelchair": "yes"
      },
      "geometry": {
        "type": "Point",
        "coordinates": [
          8.7028949,
          49.3744242
        ]
      },
      "id": "node/3435212752"
    },
    {
      "type": "Feature",
      "properties": {
        "@id": "node/3477976740",
        "name": "Ill-Style",
        "shop": "hairdresser",
        "website": "https://ill-style-heidelberg.de"
      },
      "geometry": {
        "type": "Point",
        "coordinates": [
          8.6896674,
          49.3954823
        ]
      },
      "id": "node/3477976740"
    },
    {
      "type": "Feature",
      "properties": {
        "@id": "node/3480396731",
        "addr:city": "Heidelberg",
        "addr:country": "DE",
        "addr:housenumber": "2",
        "addr:postcode": "69118",
        "addr:street": "Kleingemünder Straße",
        "name": "Haardesign Anette Herrmann",
        "phone": "+49 6221 802108",
        "shop": "hairdresser",
        "website": "https://www.haardesign-heidelberg.de",
        "wheelchair": "yes"
      },
      "geometry": {
        "type": "Point",
        "coordinates": [
          8.7569585,
          49.4181476
        ]
      },
      "id": "node/3480396731"
    },
    {
      "type": "Feature",
      "properties": {
        "@id": "node/3490401173",
        "name": "Salon Petra",
        "opening_hours:signed": "no",
        "shop": "hairdresser",
        "wheelchair": "limited"
      },
      "geometry": {
        "type": "Point",
        "coordinates": [
          8.684928,
          49.4001404
        ]
      },
      "id": "node/3490401173"
    },
    {
      "type": "Feature",
      "properties": {
        "@id": "node/3509227709",
        "name": "Bofinger Femme",
        "opening_hours": "Mo-Sa 11:00-18:00",
        "shop": "clothes",
        "website": "http://www.niebel-mode.de",
        "wheelchair": "yes"
      },
      "geometry": {
        "type": "Point",
        "coordinates": [
          8.6939176,
          49.409066
        ]
      },
      "id": "node/3509227709"
    },
    {
      "type": "Feature",
      "properties": {
        "@id": "node/3509227710",
        "check_date:opening_hours": "2022-07-12",
        "name": "Bofinger Men",
        "opening_hours": "Mo-Sa 10:00-18:00",
        "shop": "clothes",
        "website": "http://www.niebel-mode.de",
        "wheelchair": "limited",
        "wheelchair:description": "Mehrere Stockwerke ohne Aufzug"
      },
      "geometry": {
        "type": "Point",
        "coordinates": [
          8.693871,
          49.4091866
        ]
      },
      "id": "node/3509227710"
    },
    {
      "type": "Feature",
      "properties": {
        "@id": "node/3583229396",
        "addr:city": "Heidelberg",
        "addr:housenumber": "19",
        "addr:postcode": "69121",
        "addr:street": "Rottmannstraße",
        "name": "La Testa",
        "opening_hours": "Tu-Th 09:00-18:00; Fr 09:00-20:00; Sa 09:00-14:00",
        "shop": "hairdresser",
        "website": "http://latesta.de/",
        "wheelchair": "limited"
      },
      "geometry": {
        "type": "Point",
        "coordinates": [
          8.6851699,
          49.4253782
        ]
      },
      "id": "node/3583229396"
    },
    {
      "type": "Feature",
      "properties": {
        "@id": "node/3613411403",
        "addr:city": "Heidelberg",
        "addr:housenumber": "37",
        "addr:postcode": "69120",
        "addr:street": "Ladenburger Straße",
        "addr:suburb": "Neuenheim",
        "bulk_purchase": "yes",
        "check_date:opening_hours": "2021-04-29",
        "description": "Unverpackte Biolebensmittel, nachhaltiges und regionales Zubehör für Küche und Haushalt",
        "name": "Annas Unverpacktes",
        "opening_hours": "Tu-Sa 10:00-18:30",
        "operator": "Andreas Wille",
        "organic": "only",
        "phone": "+4962216724604",
        "reusable_packaging:accept": "only",
        "shop": "supermarket",
        "website": "http://www.annas-unverpacktes.de",
        "wheelchair": "yes",
        "zero_waste": "only"
      },
      "geometry": {
        "type": "Point",
        "coordinates": [
          8.6885716,
          49.4142758
        ]
      },
      "id": "node/3613411403"
    },
    {
      "type": "Feature",
      "properties": {
        "@id": "node/3712822513",
        "name": "FREIRAUM friseur",
        "opening_hours": "Mo-Fr 10:00-19:00; Sa 10:00-16:00",
        "shop": "hairdresser",
        "website": "https://freiraum-friseur.de/",
        "wheelchair": "no"
      },
      "geometry": {
        "type": "Point",
        "coordinates": [
          8.6846253,
          49.4029305
        ]
      },
      "id": "node/3712822513"
    },
    {
      "type": "Feature",
      "properties": {
        "@id": "node/3712822517",
        "name": "Lübeck",
        "opening_hours": "Th,Fr 09:00-18:00; Sa 08:00-13:00; Tu,We 09:00-17:00",
        "shop": "hairdresser",
        "website": "https://www.luebeck-frisuren.de/",
        "wheelchair": "yes"
      },
      "geometry": {
        "type": "Point",
        "coordinates": [
          8.6846476,
          49.4025569
        ]
      },
      "id": "node/3712822517"
    },
    {
      "type": "Feature",
      "properties": {
        "@id": "node/3763267773",
        "addr:city": "Heidelberg",
        "addr:country": "DE",
        "addr:housenumber": "5",
        "addr:postcode": "69115",
        "addr:street": "Bahnhofstraße",
        "name": "Amato",
        "opening_hours": "Tu-Fr 09:00-18:30; Sa 08:30-15:00",
        "shop": "hairdresser",
        "wheelchair": "no"
      },
      "geometry": {
        "type": "Point",
        "coordinates": [
          8.6917584,
          49.4061221
        ]
      },
      "id": "node/3763267773"
    },
    {
      "type": "Feature",
      "properties": {
        "@id": "node/3826792477",
        "addr:housenumber": "6",
        "addr:street": "Hauptstraße",
        "lastcheck": "2017-12-23",
        "name": "Brax",
        "opening_hours": "Mo-Fr 10:00-20:00; Sa 10:00-19:00",
        "phone": "+49 (0)6221 6539889",
        "shop": "clothes",
        "website": "https://corporate.brax.com/de_de/shop/store/1030-brax-store-heidelberg",
        "wheelchair": "yes"
      },
      "geometry": {
        "type": "Point",
        "coordinates": [
          8.6944789,
          49.4098887
        ]
      },
      "id": "node/3826792477"
    },
    {
      "type": "Feature",
      "properties": {
        "@id": "node/3853403426",
        "lastcheck": "2017-08-14",
        "name": "Calida",
        "opening_hours": "Mo-Sa 09:30-18:00",
        "phone": "+49 6221 655 1452",
        "shop": "clothes",
        "wheelchair": "yes"
      },
      "geometry": {
        "type": "Point",
        "coordinates": [
          8.7018078,
          49.411183
        ]
      },
      "id": "node/3853403426"
    },
    {
      "type": "Feature",
      "properties": {
        "@id": "node/3853403427",
        "lastcheck": "2017-08-14",
        "name": "Heisel",
        "opening_hours": "Mo-Fr 09:30-18:30; Sa 09:30-16:00",
        "phone": "+49 6221 23333",
        "shop": "clothes",
        "website": "https://www.heisel.com/",
        "wheelchair": "no"
      },
      "geometry": {
        "type": "Point",
        "coordinates": [
          8.6977433,
          49.4103881
        ]
      },
      "id": "node/3853403427"
    },
    {
      "type": "Feature",
      "properties": {
        "@id": "node/3886216367",
        "addr:housenumber": "6",
        "addr:street": "Hauptstraße",
        "brand": "Intimissimi",
        "brand:wikidata": "Q305404",
        "brand:wikipedia": "en:Intimissimi",
        "clothes": "underwear",
        "lastcheck": "2017-08-14",
        "name": "Intimissimi",
        "opening_hours": "Mo-Fr 10:00-20:00; Sa 10:00-19:00",
        "shop": "clothes",
        "website": "https://de.intimissimi.com/store/HEIDELBERG-HAUPTSTRASSE-6/3551.uts?storeId=3551",
        "wheelchair": "yes"
      },
      "geometry": {
        "type": "Point",
        "coordinates": [
          8.6945474,
          49.4099083
        ]
      },
      "id": "node/3886216367"
    },
    {
      "type": "Feature",
      "properties": {
        "@id": "node/3886565242",
        "closed:name": "Villeroy & Boch",
        "name": "mey",
        "shop": "clothes"
      },
      "geometry": {
        "type": "Point",
        "coordinates": [
          8.7023442,
          49.4112546
        ]
      },
      "id": "node/3886565242"
    },
    {
      "type": "Feature",
      "properties": {
        "@id": "node/3899648449",
        "closed:name": "Bree",
        "closed:shop": "bag",
        "name": "Contigo",
        "opening_hours": "Mo-Sa 10:00-18:00",
        "shop": "convenience",
        "website": "https://heidelberg.contigo.de"
      },
      "geometry": {
        "type": "Point",
        "coordinates": [
          8.7031476,
          49.4112332
        ]
      },
      "id": "node/3899648449"
    },
    {
      "type": "Feature",
      "properties": {
        "@id": "node/3899648453",
        "addr:housenumber": "103",
        "addr:street": "Hauptstraße",
        "name": "American Vintage",
        "opening_hours": "Mo-Sa 12:00-18:00",
        "shop": "clothes",
        "website": "https://de.americanvintage-store.com/de/"
      },
      "geometry": {
        "type": "Point",
        "coordinates": [
          8.7033277,
          49.4114127
        ]
      },
      "id": "node/3899648453"
    },
    {
      "type": "Feature",
      "properties": {
        "@id": "node/3908959834",
        "name": "Frisör Meyer",
        "phone": "+49 6221 21072",
        "shop": "hairdresser",
        "website": "http://www.frisoer-meyer-heidelberg.de"
      },
      "geometry": {
        "type": "Point",
        "coordinates": [
          8.6894046,
          49.408447
        ]
      },
      "id": "node/3908959834"
    },
    {
      "type": "Feature",
      "properties": {
        "@id": "node/3908959835",
        "name": "Orient Markt",
        "shop": "clothes",
        "wheelchair": "limited"
      },
      "geometry": {
        "type": "Point",
        "coordinates": [
          8.689286,
          49.4084228
        ]
      },
      "id": "node/3908959835"
    },
    {
      "type": "Feature",
      "properties": {
        "@id": "node/3962604219",
        "addr:city": "Heidelberg",
        "addr:housenumber": "2",
        "addr:postcode": "69115",
        "addr:street": "Pfaffengrunder Terrasse",
        "name": "Kastler17",
        "opening_hours": "Tu-Fr 10:00-18:00; Sa 10:00-14:00; PH off",
        "shop": "clothes",
        "website": "https://www.kastler17.com",
        "wheelchair": "limited"
      },
      "geometry": {
        "type": "Point",
        "coordinates": [
          8.6651108,
          49.4024771
        ]
      },
      "id": "node/3962604219"
    },
    {
      "type": "Feature",
      "properties": {
        "@id": "node/4038445679",
        "addr:housenumber": "56",
        "addr:street": "Plöck",
        "female": "yes",
        "lastcheck": "2017-08-08",
        "male": "yes",
        "name": "Figaro Company",
        "opening_hours": "Mo-Fr 08:30-19:00; Sa 08:30-16:00",
        "phone": "+49 6221 26266",
        "shop": "hairdresser",
        "unisex": "yes",
        "website": "https://www.figaro-company.de",
        "wheelchair": "no"
      },
      "geometry": {
        "type": "Point",
        "coordinates": [
          8.7036225,
          49.4094205
        ]
      },
      "id": "node/4038445679"
    },
    {
      "type": "Feature",
      "properties": {
        "@id": "node/4043187301",
        "lastcheck": "2017-08-08",
        "name": "Eiermann",
        "opening_hours": "Mo-Fr 09:00-17:00",
        "phone": "+49 6221 20585",
        "shop": "clothes",
        "website": "http://www.eiermann-berufskleidung.de/",
        "wheelchair": "no"
      },
      "geometry": {
        "type": "Point",
        "coordinates": [
          8.6812676,
          49.4077065
        ]
      },
      "id": "node/4043187301"
    },
    {
      "type": "Feature",
      "properties": {
        "@id": "node/4054277189",
        "addr:city": "Heidelberg",
        "addr:housenumber": "1",
        "addr:postcode": "69117",
        "addr:street": "Hauptstraße",
        "brand": "H&M",
        "brand:wikidata": "Q188326",
        "brand:wikipedia": "en:H&M",
        "check_date:opening_hours": "2022-01-06",
        "lastcheck": "2017-08-14",
        "level": "0",
        "name": "H&M",
        "opening_hours": "Mo-Sa 10:00-20:00",
        "phone": "+49 800 6655900",
        "shop": "clothes",
        "wheelchair": "limited",
        "wheelchair:description": "Extra ausgezeichnete Rollstuhlfahrerumkleidekabine"
      },
      "geometry": {
        "type": "Point",
        "coordinates": [
          8.6937197,
          49.4098199
        ]
      },
      "id": "node/4054277189"
    },
    {
      "type": "Feature",
      "properties": {
        "@id": "node/4081112168",
        "name": "Second Hand Laden",
        "opening_hours": "Tu,We,Th 10:00-12:30, 14:00-17:00; Sa 10:00-13:00",
        "second_hand": "only",
        "shop": "clothes",
        "wheelchair": "no"
      },
      "geometry": {
        "type": "Point",
        "coordinates": [
          8.7030479,
          49.4100193
        ]
      },
      "id": "node/4081112168"
    },
    {
      "type": "Feature",
      "properties": {
        "@id": "node/4082652888",
        "addr:housenumber": "28",
        "addr:street": "Plöck",
        "name": "Alfano Hair",
        "opening_hours": "Tu-Fr 09:30-19:00; Sa 09:30-16:00",
        "shop": "hairdresser",
        "website": "http://www.alfano-hair.de",
        "wheelchair": "yes"
      },
      "geometry": {
        "type": "Point",
        "coordinates": [
          8.6989542,
          49.4091629
        ]
      },
      "id": "node/4082652888"
    },
    {
      "type": "Feature",
      "properties": {
        "@id": "node/4087959857",
        "email": "info@belleza-umstandsmode.de",
        "lastcheck": "2017-08-08",
        "name": "Belleza Umstands- und Babymode",
        "opening_hours": "Mo-Fr 10:00-18:30;Sa 10:00-16:00",
        "phone": "+49 6221 5992626",
        "shop": "clothes",
        "website": "https://www.belleza-umstandsmode.de/",
        "wheelchair": "no"
      },
      "geometry": {
        "type": "Point",
        "coordinates": [
          8.6949619,
          49.4089172
        ]
      },
      "id": "node/4087959857"
    },
    {
      "type": "Feature",
      "properties": {
        "@id": "node/4087959861",
        "email": "papierundformgmbh@t-online.de",
        "fax": "+49 6221 164782",
        "lastcheck": "2017-08-14",
        "name": "Papier + Form",
        "opening_hours": "Mo-Fr 10:00-19:00; Sa 10:00-18:00",
        "phone": "+49 6221 23893",
        "shop": "convenience",
        "website": "http://www.papierundform.com/",
        "wheelchair": "yes"
      },
      "geometry": {
        "type": "Point",
        "coordinates": [
          8.6941982,
          49.4095259
        ]
      },
      "id": "node/4087959861"
    },
    {
      "type": "Feature",
      "properties": {
        "@id": "node/4129828281",
        "name": "Colour by Ehmann",
        "opening_hours": "Tu-Fr 09:00-18:00; Sa 09:00-16:00",
        "phone": "+49 6221 28104",
        "shop": "hairdresser",
        "website": "http://www.colour-by-ehmann.de/",
        "wheelchair": "no",
        "wheelchair:description": "Eine Stufe zum Eingang (Höhe 17cm)"
      },
      "geometry": {
        "type": "Point",
        "coordinates": [
          8.6976917,
          49.4082587
        ]
      },
      "id": "node/4129828281"
    },
    {
      "type": "Feature",
      "properties": {
        "@id": "node/4290023112",
        "branch": "Große Größen",
        "brand": "Ulla Popken",
        "brand:wikidata": "Q2475146",
        "brand:wikipedia": "en:Ulla Popken",
        "lastcheck": "2017-08-14",
        "name": "Ulla Popken",
        "opening_hours": "Mo-Fr 10:00-18:00; Sa 10:00-17:00",
        "shop": "clothes",
        "website": "https://www.ullapopken.de/de/inhalt/kundenservice/service/filialfinder/",
        "wheelchair": "no",
        "wheelchair:description": "Zwar Treppenstufen, Personal hilft jedoch"
      },
      "geometry": {
        "type": "Point",
        "coordinates": [
          8.7073057,
          49.4117955
        ]
      },
      "id": "node/4290023112"
    },
    {
      "type": "Feature",
      "properties": {
        "@id": "node/4293293828",
        "brand": "Pimkie",
        "brand:wikidata": "Q1758066",
        "brand:wikipedia": "en:Pimkie",
        "check_date:opening_hours": "2022-10-27",
        "lastcheck": "2017-08-14",
        "name": "Pimkie",
        "opening_hours": "Mo-Sa 10:00-20:00",
        "phone": "+49 6221 166510",
        "shop": "clothes",
        "website": "https://www.pimkie.de/store-pimkie-00142",
        "wheelchair": "yes"
      },
      "geometry": {
        "type": "Point",
        "coordinates": [
          8.6956822,
          49.4100762
        ]
      },
      "id": "node/4293293828"
    },
    {
      "type": "Feature",
      "properties": {
        "@id": "node/4313438165",
        "addr:city": "Heidelberg",
        "addr:housenumber": "118",
        "addr:postcode": "69124",
        "addr:street": "Pleikartsförster Straße",
        "name": "Car Service Kress",
        "shop": "car_repair"
      },
      "geometry": {
        "type": "Point",
        "coordinates": [
          8.6637773,
          49.3867728
        ]
      },
      "id": "node/4313438165"
    },
    {
      "type": "Feature",
      "properties": {
        "@id": "node/4315367366",
        "name": "NewYorker",
        "opening_hours": "Mo-Sa 10:00-20:00",
        "shop": "clothes",
        "wheelchair": "yes"
      },
      "geometry": {
        "type": "Point",
        "coordinates": [
          8.6987193,
          49.4105723
        ]
      },
      "id": "node/4315367366"
    },
    {
      "type": "Feature",
      "properties": {
        "@id": "node/4315430905",
        "addr:housenumber": "84",
        "addr:street": "Hauptstraße",
        "name": "Adenauer & Co",
        "old_name": "Stefanel",
        "shop": "clothes",
        "website": "https://www.adenauer.com"
      },
      "geometry": {
        "type": "Point",
        "coordinates": [
          8.7004886,
          49.4108406
        ]
      },
      "id": "node/4315430905"
    },
    {
      "type": "Feature",
      "properties": {
        "@id": "node/4317339161",
        "addr:housenumber": "19",
        "addr:street": "Jahnstraße",
        "name": "Schöne Haare",
        "shop": "hairdresser"
      },
      "geometry": {
        "type": "Point",
        "coordinates": [
          8.6804399,
          49.4130892
        ]
      },
      "id": "node/4317339161"
    },
    {
      "type": "Feature",
      "properties": {
        "@id": "node/4317899431",
        "lastcheck": "2017-08-14",
        "name": "Seidensticker",
        "opening_hours": "Mo-Fr 10:00-19:00; Sa 10:00-18:00",
        "phone": "+49 6221 727 4192",
        "shop": "clothes",
        "website": "https://www.seidensticker.com/storefinder/",
        "wheelchair": "limited",
        "wheelchair:description": "mobile Rampe vorhanden"
      },
      "geometry": {
        "type": "Point",
        "coordinates": [
          8.7033246,
          49.4112585
        ]
      },
      "id": "node/4317899431"
    },
    {
      "type": "Feature",
      "properties": {
        "@id": "node/4317899432",
        "brand": "Timberland",
        "brand:wikidata": "Q1539185",
        "brand:wikipedia": "en:The Timberland Company",
        "lastcheck": "2017-08-14",
        "name": "Timberland",
        "opening_hours": "Mo-Sa 10:00-18:00",
        "shop": "clothes",
        "website": "https://www.timberland.de/",
        "wheelchair": "yes"
      },
      "geometry": {
        "type": "Point",
        "coordinates": [
          8.7035957,
          49.4113042
        ]
      },
      "id": "node/4317899432"
    },
    {
      "type": "Feature",
      "properties": {
        "@id": "node/4320175479",
        "addr:housenumber": "25",
        "addr:street": "Plöck",
        "lastcheck": "2018-05-01",
        "name": "elegance",
        "shop": "hairdresser",
        "wheelchair": "yes"
      },
      "geometry": {
        "type": "Point",
        "coordinates": [
          8.6958874,
          49.4089509
        ]
      },
      "id": "node/4320175479"
    },
    {
      "type": "Feature",
      "properties": {
        "@id": "node/4336640003",
        "lastcheck": "2017-08-08",
        "name": "Freudenhaus",
        "opening_hours": "Mo-Fr 11:00-19:00; Sa 11:00-18:00",
        "phone": "+49 6221 16 66 60",
        "shop": "clothes",
        "website": "http://www.freudenhaus-hd.de",
        "wheelchair": "no"
      },
      "geometry": {
        "type": "Point",
        "coordinates": [
          8.694706,
          49.4088813
        ]
      },
      "id": "node/4336640003"
    },
    {
      "type": "Feature",
      "properties": {
        "@id": "node/4336641557",
        "addr:housenumber": "25",
        "addr:street": "Sofienstraße",
        "fax": "+49 6221 90590-39",
        "name": "Sportiv Kampmann",
        "opening_hours": "Mo-Fr 10:00-19:00; Sa 10:00-18:00",
        "phone": "+49 6221 90590-0",
        "shop": "clothes",
        "website": "http://www.sportiv-kampmann.de",
        "wheelchair": "limited"
      },
      "geometry": {
        "type": "Point",
        "coordinates": [
          8.6942497,
          49.4083312
        ]
      },
      "id": "node/4336641557"
    },
    {
      "type": "Feature",
      "properties": {
        "@id": "node/4336684149",
        "lastcheck": "2017-08-08",
        "name": "Coiffeur Sema",
        "phone": "+49 6221 602304",
        "shop": "hairdresser",
        "website": "http://www.coiffeursema.com",
        "wheelchair": "yes"
      },
      "geometry": {
        "type": "Point",
        "coordinates": [
          8.6946369,
          49.4088772
        ]
      },
      "id": "node/4336684149"
    },
    {
      "type": "Feature",
      "properties": {
        "@id": "node/4346900345",
        "name": "Bäckerei und Altstadt-Markt",
        "shop": "convenience",
        "wheelchair": "limited"
      },
      "geometry": {
        "type": "Point",
        "coordinates": [
          8.708969,
          49.4117732
        ]
      },
      "id": "node/4346900345"
    },
    {
      "type": "Feature",
      "properties": {
        "@id": "node/4365886276",
        "fax": "+49 621 8026812",
        "name": "DEKRA Heidelberg – Station Heidelberg",
        "phone": "+49 6221 737390",
        "shop": "car_repair",
        "website": "http://www.dekra.de/heidelberg/portal.html"
      },
      "geometry": {
        "type": "Point",
        "coordinates": [
          8.6566461,
          49.3837846
        ]
      },
      "id": "node/4365886276"
    },
    {
      "type": "Feature",
      "properties": {
        "@id": "node/4365887191",
        "brand": "Chevrolet",
        "craft": "painter",
        "fax": "+49 6221 720825",
        "name": "Leibert Malerbetrieb und Autolackiererei",
        "phone": "+49 6221 785289",
        "shop": "car_repair",
        "website": "http://www.leibert-online.de/"
      },
      "geometry": {
        "type": "Point",
        "coordinates": [
          8.6754278,
          49.3832763
        ]
      },
      "id": "node/4365887191"
    },
    {
      "type": "Feature",
      "properties": {
        "@id": "node/4391405912",
        "addr:city": "Heidelberg",
        "addr:country": "DE",
        "addr:housenumber": "61",
        "addr:postcode": "69115",
        "addr:street": "Kurfürsten-Anlage",
        "brand": "Kaufland",
        "brand:wikidata": "Q685967",
        "brand:wikipedia": "en:Kaufland",
        "name": "Kaufland",
        "opening_hours": "Mo-Sa 07:00-22:00",
        "phone": "+49 6221 97190",
        "shop": "supermarket",
        "wheelchair": "yes"
      },
      "geometry": {
        "type": "Point",
        "coordinates": [
          8.6813506,
          49.4046082
        ]
      },
      "id": "node/4391405912"
    },
    {
      "type": "Feature",
      "properties": {
        "@id": "node/4406506177",
        "name": "Blue Moon Friseur",
        "shop": "hairdresser",
        "wheelchair": "limited",
        "wheelchair:description": "Eine Stufe. Drin Stufen, haben jedoch Kunden mit Rollstuhl und helfen gerne"
      },
      "geometry": {
        "type": "Point",
        "coordinates": [
          8.7097814,
          49.4115231
        ]
      },
      "id": "node/4406506177"
    },
    {
      "type": "Feature",
      "properties": {
        "@id": "node/4465989096",
        "addr:housenumber": "9",
        "addr:street": "Friedrich-Ebert-Anlage",
        "name": "Barbour",
        "shop": "clothes",
        "website": "https://www.waffen-lux.de/de/sortiment/barbour/",
        "wheelchair": "limited"
      },
      "geometry": {
        "type": "Point",
        "coordinates": [
          8.6964636,
          49.4080838
        ]
      },
      "id": "node/4465989096"
    },
    {
      "type": "Feature",
      "properties": {
        "@id": "node/4466131733",
        "addr:postcode": "69117",
        "name": "barbier",
        "phone": "+4962216731220",
        "shop": "hairdresser",
        "wheelchair": "no",
        "wheelchair:description": "Treppenhöhe 18cm"
      },
      "geometry": {
        "type": "Point",
        "coordinates": [
          8.7087043,
          49.410903
        ]
      },
      "id": "node/4466131733"
    },
    {
      "type": "Feature",
      "properties": {
        "@id": "node/4483351422",
        "addr:city": "Heidelberg",
        "addr:housenumber": "23",
        "addr:postcode": "69126",
        "addr:street": "Freiburger Straße",
        "name": "Sternberg",
        "opening_hours": "Tu-Fr 08:30-18:00; Sa 08:00-14:00",
        "shop": "hairdresser"
      },
      "geometry": {
        "type": "Point",
        "coordinates": [
          8.6804786,
          49.3732326
        ]
      },
      "id": "node/4483351422"
    },
    {
      "type": "Feature",
      "properties": {
        "@id": "node/4524077247",
        "name": "Hair Artistic",
        "opening_hours": "Tu-Fr 09:00-18:00; Sa 09:00-15:00",
        "shop": "hairdresser",
        "website": "http://www.hair-artistic.com"
      },
      "geometry": {
        "type": "Point",
        "coordinates": [
          8.6861653,
          49.4072134
        ]
      },
      "id": "node/4524077247"
    },
    {
      "type": "Feature",
      "properties": {
        "@id": "node/4535371296",
        "addr:city": "Heidelberg",
        "addr:housenumber": "31",
        "addr:postcode": "69117",
        "addr:street": "Friedrich-Ebert-Anlage",
        "name": "adhoc",
        "shop": "hairdresser",
        "wheelchair": "limited",
        "wheelchair:description": "mobile Rampe vorhanden"
      },
      "geometry": {
        "type": "Point",
        "coordinates": [
          8.6992071,
          49.4085478
        ]
      },
      "id": "node/4535371296"
    },
    {
      "type": "Feature",
      "properties": {
        "@id": "node/4535412589",
        "addr:city": "Heidelberg",
        "addr:housenumber": "13",
        "addr:postcode": "69117",
        "addr:street": "Neugasse",
        "name": "Maja Mieder Wäsche Bademoden",
        "shop": "clothes",
        "wheelchair": "limited",
        "wheelchair:description": "mobile Rampe vorhanden"
      },
      "geometry": {
        "type": "Point",
        "coordinates": [
          8.6955626,
          49.4093717
        ]
      },
      "id": "node/4535412589"
    },
    {
      "type": "Feature",
      "properties": {
        "@id": "node/4609804430",
        "addr:city": "Heidelberg",
        "addr:housenumber": "17",
        "addr:postcode": "69117",
        "addr:street": "Ziegelgasse",
        "level": "0",
        "name": "Treja",
        "opening_hours": "Mo-Fr 09:00-18:00; Sa 09:00-16:00; PH off",
        "opening_hours:covid19": "same",
        "operator": "Florin Treja",
        "payment:cash": "yes",
        "phone": "+49 6221 7190191",
        "shop": "hairdresser",
        "unisex": "yes",
        "website": "http://www.treja.de",
        "wheelchair": "no"
      },
      "geometry": {
        "type": "Point",
        "coordinates": [
          8.6995046,
          49.4115992
        ]
      },
      "id": "node/4609804430"
    },
    {
      "type": "Feature",
      "properties": {
        "@id": "node/4614243736",
        "addr:city": "Heidelberg",
        "addr:country": "DE",
        "addr:housenumber": "6",
        "addr:street": "Mittelbadgasse",
        "name": "Second Chance",
        "second_hand": "yes",
        "shop": "clothes",
        "wheelchair": "no"
      },
      "geometry": {
        "type": "Point",
        "coordinates": [
          8.7105676,
          49.4114239
        ]
      },
      "id": "node/4614243736"
    },
    {
      "type": "Feature",
      "properties": {
        "@id": "node/4682534977",
        "brand": "Volkswagen",
        "model": "transporter",
        "name": "Syncro Explorer",
        "phone": "+49 6221 8729476",
        "shop": "car_repair",
        "website": "https://www.syncroexplorer.de/"
      },
      "geometry": {
        "type": "Point",
        "coordinates": [
          8.6776678,
          49.4008061
        ]
      },
      "id": "node/4682534977"
    },
    {
      "type": "Feature",
      "properties": {
        "@id": "node/4784758835",
        "name": "Ernsting's family",
        "shop": "clothes"
      },
      "geometry": {
        "type": "Point",
        "coordinates": [
          8.6464319,
          49.4043335
        ]
      },
      "id": "node/4784758835"
    },
    {
      "type": "Feature",
      "properties": {
        "@id": "node/4857226923",
        "addr:city": "Heidelberg",
        "addr:housenumber": "37",
        "addr:street": "Bergheimer Straße",
        "name": "Aras",
        "name:de": "Aras",
        "opening_hours": "Mo-Sa 10:00-20:00",
        "payment:cash": "yes",
        "shop": "supermarket",
        "wheelchair": "no"
      },
      "geometry": {
        "type": "Point",
        "coordinates": [
          8.6889798,
          49.4083777
        ]
      },
      "id": "node/4857226923"
    },
    {
      "type": "Feature",
      "properties": {
        "@id": "node/4864899872",
        "lastcheck": "2017-08-14",
        "name": "Azita",
        "opening_hours": "Mo-Fr 10:00-19:00; Sa 10:00-18:00",
        "shop": "clothes"
      },
      "geometry": {
        "type": "Point",
        "coordinates": [
          8.7046581,
          49.411546
        ]
      },
      "id": "node/4864899872"
    },
    {
      "type": "Feature",
      "properties": {
        "@id": "node/4872984645",
        "addr:postcode": "69117",
        "lastcheck": "2017-08-14",
        "name": "Glück",
        "opening_hours": "Mo-Sa 11:00-19:00",
        "phone": "+49 6221 8936856",
        "shop": "clothes",
        "website": "http://glueck-heidelberg.de",
        "wheelchair": "no"
      },
      "geometry": {
        "type": "Point",
        "coordinates": [
          8.7065041,
          49.4116411
        ]
      },
      "id": "node/4872984645"
    },
    {
      "type": "Feature",
      "properties": {
        "@id": "node/4919785890",
        "addr:city": "Heidelberg",
        "addr:housenumber": "132",
        "addr:postcode": "69121",
        "addr:street": "Handschuhsheimer Landstraße",
        "email": "info@latete.de",
        "fax": "+49 6221 7287834",
        "level": "0",
        "name": "La Tête Frisör",
        "opening_hours:signed": "no",
        "operator": "Dorothea Lashgari-Meinhard",
        "phone": "+49 6221 410650",
        "shop": "hairdresser",
        "website": "http://latete.de/",
        "wheelchair": "limited"
      },
      "geometry": {
        "type": "Point",
        "coordinates": [
          8.687797,
          49.4282983
        ]
      },
      "id": "node/4919785890"
    },
    {
      "type": "Feature",
      "properties": {
        "@id": "node/4930138835",
        "name": "ADAC Hauck OHG",
        "office": "company",
        "phone": "+496221707838",
        "shop": "car_repair",
        "website": "http://www.abschleppdienst-hauck.de/"
      },
      "geometry": {
        "type": "Point",
        "coordinates": [
          8.6381775,
          49.4117585
        ]
      },
      "id": "node/4930138835"
    },
    {
      "type": "Feature",
      "properties": {
        "@id": "node/4930138838",
        "name": "Auto Lukauer",
        "phone": "+49 6221 775053",
        "shop": "car_repair",
        "website": "http://www.lukauer.autoauto.de/"
      },
      "geometry": {
        "type": "Point",
        "coordinates": [
          8.6383411,
          49.4084654
        ]
      },
      "id": "node/4930138838"
    },
    {
      "type": "Feature",
      "properties": {
        "@id": "node/4930138839",
        "name": "Haas Auto-Technik und Design",
        "phone": "+49 6221 765005",
        "shop": "car_repair"
      },
      "geometry": {
        "type": "Point",
        "coordinates": [
          8.6375874,
          49.4083223
        ]
      },
      "id": "node/4930138839"
    },
    {
      "type": "Feature",
      "properties": {
        "@id": "node/4930138844",
        "name": "Autosattlerei Künzer",
        "phone": "+49 6221 20184",
        "shop": "car_repair",
        "website": "https://www.autosattlerei-heidelberg.de/"
      },
      "geometry": {
        "type": "Point",
        "coordinates": [
          8.6462617,
          49.4085003
        ]
      },
      "id": "node/4930138844"
    },
    {
      "type": "Feature",
      "properties": {
        "@id": "node/4934016714",
        "lastcheck": "2017-08-14",
        "name": "Falconeri",
        "phone": "+49 6221 1363302",
        "shop": "clothes",
        "start_date": "2017-05",
        "website": "https://de.falconeri.com/custserv/locate_store.cmd",
        "wheelchair": "yes"
      },
      "geometry": {
        "type": "Point",
        "coordinates": [
          8.6967861,
          49.4102415
        ]
      },
      "id": "node/4934016714"
    },
    {
      "type": "Feature",
      "properties": {
        "@id": "node/4991120971",
        "shop": "convenience",
        "source": "survey"
      },
      "geometry": {
        "type": "Point",
        "coordinates": [
          8.6619043,
          49.3870452
        ]
      },
      "id": "node/4991120971"
    },
    {
      "type": "Feature",
      "properties": {
        "@id": "node/5021542286",
        "lastcheck": "2017-08-08",
        "name": "Yabis Cashmere",
        "phone": "+49 6221 6502649",
        "shop": "clothes",
        "website": "http://www.yabis-cashmere.de",
        "wheelchair": "limited"
      },
      "geometry": {
        "type": "Point",
        "coordinates": [
          8.7071113,
          49.4121907
        ]
      },
      "id": "node/5021542286"
    },
    {
      "type": "Feature",
      "properties": {
        "@id": "node/5023452022",
        "lastcheck": "2017-08-08",
        "name": "Ezati",
        "opening_hours": "Mo-Fr 11:00- 19:00;Sa 11:00- 18:00",
        "phone": "+49 6221 162 625",
        "shop": "clothes",
        "website": "https://www.ezati.de/",
        "wheelchair": "yes"
      },
      "geometry": {
        "type": "Point",
        "coordinates": [
          8.7066911,
          49.4121693
        ]
      },
      "id": "node/5023452022"
    },
    {
      "type": "Feature",
      "properties": {
        "@id": "node/5023467181",
        "closed:name": "Venti Moden",
        "closed:shop": "clothes",
        "closed:website": "https://venti-moden.de",
        "name": "SabineSabine",
        "shop": "clothes"
      },
      "geometry": {
        "type": "Point",
        "coordinates": [
          8.7060592,
          49.411996
        ]
      },
      "id": "node/5023467181"
    },
    {
      "type": "Feature",
      "properties": {
        "@id": "node/5023586153",
        "name": "Blickfang",
        "shop": "clothes"
      },
      "geometry": {
        "type": "Point",
        "coordinates": [
          8.7068037,
          49.4121723
        ]
      },
      "id": "node/5023586153"
    },
    {
      "type": "Feature",
      "properties": {
        "@id": "node/5029310653",
        "addr:city": "Heidelberg",
        "addr:housenumber": "1",
        "addr:postcode": "69115",
        "addr:street": "Nightingalestraße",
        "check_date:opening_hours": "2022-03-14",
        "name": "Las Vegas",
        "opening_hours": "Mo-Fr 10:00-20:00, Sa 10:00-16:00",
        "shop": "hairdresser",
        "wheelchair": "yes"
      },
      "geometry": {
        "type": "Point",
        "coordinates": [
          8.6697257,
          49.4017511
        ]
      },
      "id": "node/5029310653"
    },
    {
      "type": "Feature",
      "properties": {
        "@id": "node/5036176025",
        "name": "Bofinger",
        "opening_hours": "Mo-Sa 10:00-19:00",
        "phone": "+49 6221 22373",
        "shop": "clothes",
        "website": "http://niebelmode.de/bofinger_heidelberg.html",
        "wheelchair": "yes"
      },
      "geometry": {
        "type": "Point",
        "coordinates": [
          8.6961575,
          49.4102882
        ]
      },
      "id": "node/5036176025"
    },
    {
      "type": "Feature",
      "properties": {
        "@id": "node/5036176027",
        "name": "Jack & Jones Vero Moda",
        "shop": "clothes",
        "wheelchair": "yes"
      },
      "geometry": {
        "type": "Point",
        "coordinates": [
          8.6952777,
          49.41018
        ]
      },
      "id": "node/5036176027"
    },
    {
      "type": "Feature",
      "properties": {
        "@id": "node/5036176029",
        "brand": "Mango",
        "brand:wikidata": "Q136503",
        "brand:wikipedia": "en:Mango (retailer)",
        "name": "Mango",
        "shop": "clothes",
        "website": "https://shop.mango.com/de",
        "wheelchair": "yes"
      },
      "geometry": {
        "type": "Point",
        "coordinates": [
          8.6949626,
          49.4101547
        ]
      },
      "id": "node/5036176029"
    },
    {
      "type": "Feature",
      "properties": {
        "@id": "node/5036176032",
        "brand": "Calzedonia",
        "brand:wikidata": "Q1027874",
        "brand:wikipedia": "en:Calzedonia",
        "name": "Calzedonia",
        "shop": "clothes",
        "website": "https://de.calzedonia.com",
        "wheelchair": "yes"
      },
      "geometry": {
        "type": "Point",
        "coordinates": [
          8.6938501,
          49.4098232
        ]
      },
      "id": "node/5036176032"
    },
    {
      "type": "Feature",
      "properties": {
        "@id": "node/5038185126",
        "brand": "Only",
        "brand:wikidata": "Q61799370",
        "contact:facebook": "https://de-de.facebook.com/onlyheidelberg/",
        "name": "Only",
        "phone": "+49 6221 4378152",
        "shop": "clothes",
        "wheelchair": "no",
        "wheelchair:description": "1 hohe Stufe am Eingang"
      },
      "geometry": {
        "type": "Point",
        "coordinates": [
          8.6991261,
          49.410794
        ]
      },
      "id": "node/5038185126"
    },
    {
      "type": "Feature",
      "properties": {
        "@id": "node/5042333977",
        "addr:housenumber": "123",
        "addr:street": "Hauptstraße",
        "lastcheck": "2017-12-23",
        "name": "Haarscharf",
        "shop": "hairdresser",
        "wheelchair": "no"
      },
      "geometry": {
        "type": "Point",
        "coordinates": [
          8.7049562,
          49.4115907
        ]
      },
      "id": "node/5042333977"
    },
    {
      "type": "Feature",
      "properties": {
        "@id": "node/5045747410",
        "name": "Good Karma",
        "shop": "clothes",
        "wheelchair": "no"
      },
      "geometry": {
        "type": "Point",
        "coordinates": [
          8.7074523,
          49.4116854
        ]
      },
      "id": "node/5045747410"
    },
    {
      "type": "Feature",
      "properties": {
        "@id": "node/5048772694",
        "addr:housenumber": "6",
        "addr:street": "Brückenkopfstraße",
        "name": "Menrath",
        "opening_hours": "Mo-Fr 09:00-18:30; Sa 08:00-15:00",
        "shop": "hairdresser",
        "unisex": "yes",
        "website": "http://www.menrath-der-friseur.de",
        "wheelchair": "no"
      },
      "geometry": {
        "type": "Point",
        "coordinates": [
          8.6926277,
          49.4139786
        ]
      },
      "id": "node/5048772694"
    },
    {
      "type": "Feature",
      "properties": {
        "@id": "node/5105325611",
        "addr:housenumber": "59",
        "addr:street": "Kaiserstraße",
        "male": "yes",
        "name": "Der Figaro",
        "shop": "hairdresser",
        "website": "http://italianstyle-heidelberg.de",
        "wheelchair": "no"
      },
      "geometry": {
        "type": "Point",
        "coordinates": [
          8.6834747,
          49.4032216
        ]
      },
      "id": "node/5105325611"
    },
    {
      "type": "Feature",
      "properties": {
        "@id": "node/5156653723",
        "brand": "Scotch & Soda",
        "brand:wikidata": "Q17141914",
        "brand:wikipedia": "en:Scotch and Soda (clothing)",
        "name": "Scotch & Soda",
        "opening_hours": "Mo-Sa 10:00-19:00",
        "shop": "clothes",
        "wheelchair": "yes"
      },
      "geometry": {
        "type": "Point",
        "coordinates": [
          8.6974082,
          49.4103361
        ]
      },
      "id": "node/5156653723"
    },
    {
      "type": "Feature",
      "properties": {
        "@id": "node/5156688321",
        "name": "Levi‘s",
        "opening_hours": "Mo-Sa 10:00-19:00",
        "shop": "clothes",
        "wheelchair": "yes"
      },
      "geometry": {
        "type": "Point",
        "coordinates": [
          8.6972854,
          49.4103186
        ]
      },
      "id": "node/5156688321"
    },
    {
      "type": "Feature",
      "properties": {
        "@id": "node/5159110622",
        "level": "0",
        "name": "Genials Friseure",
        "opening_hours": "Mo-Sa 09:00-20:00",
        "shop": "hairdresser"
      },
      "geometry": {
        "type": "Point",
        "coordinates": [
          8.6935503,
          49.4100211
        ]
      },
      "id": "node/5159110622"
    },
    {
      "type": "Feature",
      "properties": {
        "@id": "node/5197112515",
        "level": "4",
        "name": "Essanelle",
        "shop": "hairdresser",
        "unisex": "yes",
        "website": "https://essanelle.de/",
        "wheelchair": "yes"
      },
      "geometry": {
        "type": "Point",
        "coordinates": [
          8.6927549,
          49.4087026
        ]
      },
      "id": "node/5197112515"
    },
    {
      "type": "Feature",
      "properties": {
        "@id": "node/5203782222",
        "name": "Haarband",
        "opening_hours": "Mo-Fr 10:00-19:00; Sa 10:00-18:00",
        "shop": "hairdresser",
        "unisex": "yes"
      },
      "geometry": {
        "type": "Point",
        "coordinates": [
          8.6879209,
          49.407675
        ]
      },
      "id": "node/5203782222"
    },
    {
      "type": "Feature",
      "properties": {
        "@id": "node/5206674791",
        "addr:housenumber": "19",
        "addr:street": "Zwingerstraße",
        "name": "Filiz",
        "shop": "hairdresser"
      },
      "geometry": {
        "type": "Point",
        "coordinates": [
          8.7111517,
          49.411142
        ]
      },
      "id": "node/5206674791"
    },
    {
      "type": "Feature",
      "properties": {
        "@id": "node/5206674805",
        "level": "1",
        "name": "Essanelle",
        "shop": "hairdresser",
        "unisex": "yes",
        "website": "https://essanelle.de/"
      },
      "geometry": {
        "type": "Point",
        "coordinates": [
          8.6964136,
          49.4091076
        ]
      },
      "id": "node/5206674805"
    },
    {
      "type": "Feature",
      "properties": {
        "@id": "node/5213292332",
        "addr:housenumber": "6",
        "addr:street": "Heumarkt",
        "name": "Benders",
        "shop": "hairdresser"
      },
      "geometry": {
        "type": "Point",
        "coordinates": [
          8.7060656,
          49.4119465
        ]
      },
      "id": "node/5213292332"
    },
    {
      "type": "Feature",
      "properties": {
        "@id": "node/5213292333",
        "name": "Luxury Loft M",
        "shop": "clothes",
        "website": "https://www.luxuryloft.de/m-luxury-loft/"
      },
      "geometry": {
        "type": "Point",
        "coordinates": [
          8.7064371,
          49.411964
        ]
      },
      "id": "node/5213292333"
    },
    {
      "type": "Feature",
      "properties": {
        "@id": "node/5238360736",
        "closed:name": "Pralinenmanufaktur Vorbach",
        "closed:shop": "confectionery",
        "name": "Sumerian Cuts",
        "opening_hours": "Mo-Sa 10:00-20:00, PH off",
        "shop": "hairdresser"
      },
      "geometry": {
        "type": "Point",
        "coordinates": [
          8.7131042,
          49.4126717
        ]
      },
      "id": "node/5238360736"
    },
    {
      "type": "Feature",
      "properties": {
        "@id": "node/5245394807",
        "name": "Salon Erlander",
        "shop": "hairdresser"
      },
      "geometry": {
        "type": "Point",
        "coordinates": [
          8.650055,
          49.4161509
        ]
      },
      "id": "node/5245394807"
    },
    {
      "type": "Feature",
      "properties": {
        "@id": "node/5306133928",
        "addr:city": "Heidelberg",
        "addr:housenumber": "40",
        "addr:postcode": "69121",
        "addr:street": "Dossenheimer Landstraße",
        "brand": "PENNY",
        "brand:wikidata": "Q284688",
        "brand:wikipedia": "en:Penny (supermarket)",
        "check_date:opening_hours": "2021-04-03",
        "name": "PENNY",
        "opening_hours": "Mo-Sa 07:30-22:00; Su,PH off",
        "operator": "Penny",
        "shop": "supermarket",
        "toilets:wheelchair": "no",
        "wheelchair": "yes"
      },
      "geometry": {
        "type": "Point",
        "coordinates": [
          8.6832239,
          49.4287553
        ]
      },
      "id": "node/5306133928"
    },
    {
      "type": "Feature",
      "properties": {
        "@id": "node/5306375362",
        "addr:city": "Heidelberg",
        "addr:housenumber": "38",
        "addr:postcode": "69115",
        "addr:street": "Bergheimer Straße",
        "name": "Creative Cut",
        "opening_hours": "Tu-Fr 09:00-18:00; Sa 08:00-14:00",
        "shop": "hairdresser",
        "unisex": "yes",
        "website": "http://creative-cut.com"
      },
      "geometry": {
        "type": "Point",
        "coordinates": [
          8.6883952,
          49.4085784
        ]
      },
      "id": "node/5306375362"
    },
    {
      "type": "Feature",
      "properties": {
        "@id": "node/5316446079",
        "addr:city": "Heidelberg",
        "addr:housenumber": "8",
        "addr:postcode": "69115",
        "addr:street": "Rohrbacher Straße",
        "level": "0",
        "name": "VIP Haircut",
        "opening_hours": "Mo-Sa 09:00-19:00",
        "phone": "+49 6221 4041060",
        "shop": "hairdresser",
        "unisex": "yes"
      },
      "geometry": {
        "type": "Point",
        "coordinates": [
          8.6922093,
          49.4077433
        ]
      },
      "id": "node/5316446079"
    },
    {
      "type": "Feature",
      "properties": {
        "@id": "node/5395521353",
        "name": "21Shop",
        "opening_hours": "Mo-Sa 10:30-19:00",
        "shop": "clothes",
        "website": "http://21shop.eu"
      },
      "geometry": {
        "type": "Point",
        "coordinates": [
          8.6933023,
          49.4085561
        ]
      },
      "id": "node/5395521353"
    },
    {
      "type": "Feature",
      "properties": {
        "@id": "node/5486115537",
        "addr:housenumber": "75",
        "addr:street": "Rohrbacher Straße",
        "check_date:opening_hours": "2022-06-14",
        "name": "Melicut",
        "opening_hours": "Mo-Fr 10:00-19:00; Sa 09:00-16:00",
        "shop": "hairdresser",
        "unisex": "yes",
        "website": "http://melicut.de",
        "wheelchair": "limited"
      },
      "geometry": {
        "type": "Point",
        "coordinates": [
          8.69138,
          49.4014984
        ]
      },
      "id": "node/5486115537"
    },
    {
      "type": "Feature",
      "properties": {
        "@id": "node/5537489865",
        "addr:housenumber": "8",
        "addr:street": "Ladenburger Straße",
        "name": "friendly hunting",
        "shop": "clothes"
      },
      "geometry": {
        "type": "Point",
        "coordinates": [
          8.6916392,
          49.4147319
        ]
      },
      "id": "node/5537489865"
    },
    {
      "type": "Feature",
      "properties": {
        "@id": "node/5537489866",
        "addr:housenumber": "7b",
        "addr:street": "Sofienstraße",
        "level": "0",
        "name": "Chérot",
        "opening_hours": "Mo-Fr 10:00-18:00; Sa 10:00-16:00",
        "shop": "clothes",
        "website": "https://cherot-moden.de/cherot.html"
      },
      "geometry": {
        "type": "Point",
        "coordinates": [
          8.6934628,
          49.4103362
        ]
      },
      "id": "node/5537489866"
    },
    {
      "type": "Feature",
      "properties": {
        "@id": "node/5580801925",
        "addr:city": "Heidelberg",
        "addr:housenumber": "7-9",
        "addr:postcode": "69115",
        "addr:street": "Langer Anger",
        "brand": "Alnatura",
        "brand:wikidata": "Q876811",
        "brand:wikipedia": "en:Alnatura",
        "check_date:opening_hours": "2022-03-14",
        "level": "0",
        "name": "Alnatura",
        "opening_hours": "Mo-Sa 08:00-20:00; PH off",
        "organic": "only",
        "shop": "supermarket",
        "wheelchair": "yes"
      },
      "geometry": {
        "type": "Point",
        "coordinates": [
          8.6723368,
          49.3986433
        ]
      },
      "id": "node/5580801925"
    },
    {
      "type": "Feature",
      "properties": {
        "@id": "node/5588276707",
        "addr:housenumber": "16",
        "addr:street": "Rohrbacher Straße",
        "name": "Happy Lädchen",
        "second_hand": "no",
        "shop": "clothes",
        "website": "https://www.tierisch-happy.de/eure-hilfe/happy-l%C3%A4dchen/"
      },
      "geometry": {
        "type": "Point",
        "coordinates": [
          8.692515,
          49.4057981
        ]
      },
      "id": "node/5588276707"
    },
    {
      "type": "Feature",
      "properties": {
        "@id": "node/5588276710",
        "addr:housenumber": "2/2",
        "addr:street": "Plöck",
        "name": "bloom's",
        "opening_hours": "Mo-Fr 09:00-19:00; Sa 08:00-18:00",
        "shop": "hairdresser",
        "unisex": "yes",
        "website": "https://bloom-s.de/salons.html?layout=details&salonId=30"
      },
      "geometry": {
        "type": "Point",
        "coordinates": [
          8.6944985,
          49.4087431
        ]
      },
      "id": "node/5588276710"
    },
    {
      "type": "Feature",
      "properties": {
        "@id": "node/5980946189",
        "addr:housenumber": "2",
        "addr:street": "Dreikönigstraße",
        "name": "Hair Styling",
        "opening_hours": "Mo-Fr 10:00-19:00; Sa 10:00-17:00",
        "shop": "hairdresser",
        "unisex": "yes"
      },
      "geometry": {
        "type": "Point",
        "coordinates": [
          8.7075682,
          49.4131789
        ]
      },
      "id": "node/5980946189"
    },
    {
      "type": "Feature",
      "properties": {
        "@id": "node/5981004423",
        "name": "Schnittpunkt",
        "shop": "hairdresser"
      },
      "geometry": {
        "type": "Point",
        "coordinates": [
          8.6954614,
          49.4085299
        ]
      },
      "id": "node/5981004423"
    },
    {
      "type": "Feature",
      "properties": {
        "@id": "node/5981004428",
        "addr:housenumber": "15",
        "addr:street": "Neugasse",
        "clothes": "underwear",
        "name": "MAJA",
        "opening_hours": "Mo-Fr 10:00-18:00; Sa 10:00-17:00",
        "shop": "clothes"
      },
      "geometry": {
        "type": "Point",
        "coordinates": [
          8.6955538,
          49.4092173
        ]
      },
      "id": "node/5981004428"
    },
    {
      "type": "Feature",
      "properties": {
        "@id": "node/5981035569",
        "addr:housenumber": "5",
        "addr:street": "Römerstraße",
        "check_date:opening_hours": "2022-08-11",
        "name": "Friseur am Revier",
        "opening_hours": "Mo-Sa 09:00-19:00",
        "shop": "hairdresser",
        "wheelchair": "yes"
      },
      "geometry": {
        "type": "Point",
        "coordinates": [
          8.6845094,
          49.4069837
        ]
      },
      "id": "node/5981035569"
    },
    {
      "type": "Feature",
      "properties": {
        "@id": "node/6015193257",
        "addr:housenumber": "16",
        "addr:street": "Friedrich-Ebert-Anlage",
        "name": "Il Bello Uomo Donna",
        "opening_hours": "Mo-Sa 09:00-20:00",
        "shop": "hairdresser"
      },
      "geometry": {
        "type": "Point",
        "coordinates": [
          8.6970815,
          49.4078502
        ]
      },
      "id": "node/6015193257"
    },
    {
      "type": "Feature",
      "properties": {
        "@id": "node/6046114414",
        "addr:city": "Heidelberg",
        "addr:country": "DE",
        "addr:housenumber": "3",
        "addr:postcode": "69126",
        "addr:street": "Amalienstraße",
        "male": "yes",
        "name": "Golibroda der Barbier",
        "opening_hours": "Tu-Fr 10:00-19:00; Sa 10:00-14:00",
        "operator": "Bogdan Szkudlarek",
        "phone": "+49 6221 6731713",
        "shop": "hairdresser",
        "wheelchair": "no"
      },
      "geometry": {
        "type": "Point",
        "coordinates": [
          8.6917191,
          49.3786931
        ]
      },
      "id": "node/6046114414"
    },
    {
      "type": "Feature",
      "properties": {
        "@id": "node/6052328989",
        "addr:city": "Heidelberg",
        "addr:housenumber": "2",
        "addr:postcode": "69118",
        "addr:street": "Am Grünen Hag",
        "addr:suburb": "Schlierbach",
        "branch": "Müller",
        "brand": "REWE",
        "brand:wikidata": "Q16968817",
        "check_date:opening_hours": "2021-06-10",
        "description": "Neueröffnung 13.11.2018",
        "name": "REWE",
        "opening_hours": "Mo-Sa 07:00-22:00; PH off",
        "operator": "REWE Müller oHG",
        "shop": "supermarket"
      },
      "geometry": {
        "type": "Point",
        "coordinates": [
          8.7686991,
          49.4138841
        ]
      },
      "id": "node/6052328989"
    },
    {
      "type": "Feature",
      "properties": {
        "@id": "node/6182425194",
        "addr:housenumber": "11",
        "addr:street": "Heumarkt",
        "closed:name": "Lil's Laden",
        "closed:shop": "clothes",
        "description": "über der Türe steht \"Am Heumarkt 11\"",
        "name": "Adorable",
        "shop": "clothes",
        "website": "https://www.adorable-shop.de"
      },
      "geometry": {
        "type": "Point",
        "coordinates": [
          8.7063381,
          49.4119109
        ]
      },
      "id": "node/6182425194"
    },
    {
      "type": "Feature",
      "properties": {
        "@id": "node/6219625487",
        "shop": "hairdresser"
      },
      "geometry": {
        "type": "Point",
        "coordinates": [
          8.7049457,
          49.3640751
        ]
      },
      "id": "node/6219625487"
    },
    {
      "type": "Feature",
      "properties": {
        "@id": "node/6219625489",
        "name": "Ali Baba",
        "shop": "supermarket"
      },
      "geometry": {
        "type": "Point",
        "coordinates": [
          8.7049417,
          49.3642803
        ]
      },
      "id": "node/6219625489"
    },
    {
      "type": "Feature",
      "properties": {
        "@id": "node/6578884848",
        "addr:city": "Heidelberg",
        "addr:housenumber": "33",
        "addr:street": "Bergheimer Straße",
        "name": "Oriental Food",
        "opening_hours": "Mo-Sa 10:00-20:30",
        "payment:cash": "yes",
        "shop": "supermarket",
        "wheelchair": "no"
      },
      "geometry": {
        "type": "Point",
        "coordinates": [
          8.6893517,
          49.4084409
        ]
      },
      "id": "node/6578884848"
    },
    {
      "type": "Feature",
      "properties": {
        "@id": "node/6753993421",
        "clothes": "underwear",
        "name": "Atelier Usha",
        "shop": "clothes"
      },
      "geometry": {
        "type": "Point",
        "coordinates": [
          8.758322,
          49.4180574
        ]
      },
      "id": "node/6753993421"
    },
    {
      "type": "Feature",
      "properties": {
        "@id": "node/6763986524",
        "name": "l'Armadio",
        "opening_hours": "We-Fr 11:00-18:00; Sa 11:00-13:00",
        "second_hand": "only",
        "shop": "clothes",
        "website": "http://larmadio.de"
      },
      "geometry": {
        "type": "Point",
        "coordinates": [
          8.6811841,
          49.3986703
        ]
      },
      "id": "node/6763986524"
    },
    {
      "type": "Feature",
      "properties": {
        "@id": "node/6820719229",
        "name": "Incognito",
        "opening_hours:signed": "no",
        "shop": "clothes",
        "website": "https://incognito-shop.com"
      },
      "geometry": {
        "type": "Point",
        "coordinates": [
          8.6922919,
          49.4153273
        ]
      },
      "id": "node/6820719229"
    },
    {
      "type": "Feature",
      "properties": {
        "@id": "node/6820719230",
        "name": "Tom|Co.",
        "shop": "hairdresser",
        "website": "https://www.tomco.de/salons/heidelberg/"
      },
      "geometry": {
        "type": "Point",
        "coordinates": [
          8.692279,
          49.4155391
        ]
      },
      "id": "node/6820719230"
    },
    {
      "type": "Feature",
      "properties": {
        "@id": "node/6938275061",
        "name": "Black & White",
        "shop": "hairdresser"
      },
      "geometry": {
        "type": "Point",
        "coordinates": [
          8.691688,
          49.4082786
        ]
      },
      "id": "node/6938275061"
    },
    {
      "type": "Feature",
      "properties": {
        "@id": "node/6980271905",
        "addr:city": "Heidelberg",
        "addr:housenumber": "20",
        "addr:postcode": "69115",
        "addr:street": "Da-Vinci-Straße",
        "bulk_purchase": "only",
        "contact:phone": "+49 62214352085",
        "contact:website": "https://www.unverpackt-bahnstadt.de",
        "description:covid19": "Die Öffnungszeiten ändern sich monatlich. Das allererste Bild auf der Internetseite gibt Auskunft über die aktuellen.",
        "fixme": "Hat das Geschäft Hausnummer 18 oder 20? Stimmen der Wert von „reusable_packaging:offer“?",
        "image": "https://cdn.website-editor.net/c24edbc75d62462cbb323626013dd611/dms3rep/multi/desktop/MITOHNE+HOLZ.jpg",
        "name": "mitohne",
        "opening_hours": "Mo-Th 10:00-13:00, Mo,Tu,Th 15:00-18:30, Fr 12:00-18:30, Sa 10:00-15:00",
        "opening_hours:covid19": "restricted",
        "operator": "Sibylle Klessen",
        "reusable_packaging:accept": "only",
        "reusable_packaging:offer": "no",
        "shop": "convenience",
        "zero_waste": "only"
      },
      "geometry": {
        "type": "Point",
        "coordinates": [
          8.6654284,
          49.4029907
        ]
      },
      "id": "node/6980271905"
    },
    {
      "type": "Feature",
      "properties": {
        "@id": "node/6992020427",
        "level": "-1",
        "name": "Go Asia",
        "opening_hours": "Mo-Sa 09:30-20:00",
        "shop": "supermarket",
        "website": "https://goasia.net/heidelberg/",
        "wheelchair": "yes"
      },
      "geometry": {
        "type": "Point",
        "coordinates": [
          8.6933216,
          49.4088158
        ]
      },
      "id": "node/6992020427"
    },
    {
      "type": "Feature",
      "properties": {
        "@id": "node/6992034785",
        "check_date:opening_hours": "2022-01-30",
        "name": "Shan",
        "opening_hours": "Mo-Sa 10:00-20:00",
        "shop": "supermarket"
      },
      "geometry": {
        "type": "Point",
        "coordinates": [
          8.6750316,
          49.405861
        ]
      },
      "id": "node/6992034785"
    },
    {
      "type": "Feature",
      "properties": {
        "@id": "node/7003882946",
        "addr:city": "Heidelberg",
        "addr:housenumber": "29",
        "addr:street": "Rheinstraße",
        "brand": "tegut",
        "brand:wikidata": "Q1547993",
        "brand:wikipedia": "de:Tegut",
        "name": "tegut",
        "opening_hours": "Mo-Sa 07:00-21:00",
        "organic": "yes",
        "shop": "supermarket",
        "start_date": "27.11.2019",
        "toilets:wheelchair": "no",
        "wheelchair": "yes"
      },
      "geometry": {
        "type": "Point",
        "coordinates": [
          8.6865495,
          49.3898362
        ]
      },
      "id": "node/7003882946"
    },
    {
      "type": "Feature",
      "properties": {
        "@id": "node/7044986250",
        "addr:city": "Heidelberg",
        "addr:housenumber": "68",
        "addr:postcode": "69115",
        "addr:street": "Langer Anger",
        "clothes": "wedding",
        "level": "0",
        "name": "Mein Brautkleid Heidelberg",
        "opening_hours:signed": "no",
        "shop": "clothes",
        "website": "https://www.mein-brautkleid.de/",
        "wheelchair": "yes"
      },
      "geometry": {
        "type": "Point",
        "coordinates": [
          8.6640515,
          49.403521
        ]
      },
      "id": "node/7044986250"
    },
    {
      "type": "Feature",
      "properties": {
        "@id": "node/7222577341",
        "addr:city": "Heidelberg",
        "addr:housenumber": "4",
        "addr:postcode": "69115",
        "addr:street": "Galileistraße",
        "brand": "EDEKA",
        "brand:wikidata": "Q701755",
        "brand:wikipedia": "de:Edeka",
        "check_date:opening_hours": "2022-03-14",
        "name": "EDEKA Scheck-In-Center",
        "opening_hours": "Mo-Sa 07:00-22:00",
        "payment:cash": "yes",
        "payment:coins": "yes",
        "payment:credit_cards": "yes",
        "payment:debit_cards": "yes",
        "payment:visa": "yes",
        "shop": "supermarket",
        "wheelchair": "yes"
      },
      "geometry": {
        "type": "Point",
        "coordinates": [
          8.6681538,
          49.4043814
        ]
      },
      "id": "node/7222577341"
    },
    {
      "type": "Feature",
      "properties": {
        "@id": "node/7270724639",
        "name": "Palast",
        "opening_hours": "Mo-Fr 09:00-19:00; Sa 09:00-18:00",
        "shop": "hairdresser",
        "website": "http://haarstudio-palast.de",
        "wheelchair": "limited"
      },
      "geometry": {
        "type": "Point",
        "coordinates": [
          8.6918975,
          49.4159701
        ]
      },
      "id": "node/7270724639"
    },
    {
      "type": "Feature",
      "properties": {
        "@id": "node/7283221176",
        "addr:housenumber": "36",
        "addr:street": "Brückenstraße",
        "name": "Vera Ensinger",
        "opening_hours": "Mo-Fr 10:00-19:00; Sa 10:00-16:00",
        "shop": "clothes",
        "website": "http://www.veraensinger.de/heidelberg/start.html"
      },
      "geometry": {
        "type": "Point",
        "coordinates": [
          8.6922258,
          49.4162727
        ]
      },
      "id": "node/7283221176"
    },
    {
      "type": "Feature",
      "properties": {
        "@id": "node/7304570432",
        "addr:housenumber": "13",
        "addr:street": "Bergheimer Straße",
        "alt_name": "Arbil",
        "name": "Barber Style",
        "shop": "hairdresser"
      },
      "geometry": {
        "type": "Point",
        "coordinates": [
          8.6908306,
          49.4086613
        ]
      },
      "id": "node/7304570432"
    },
    {
      "type": "Feature",
      "properties": {
        "@id": "node/7435604415",
        "name": "Greger Hairline",
        "opening_hours": "Tu-Fr 09:00-18:00; Sa 09:00-14:00",
        "shop": "hairdresser"
      },
      "geometry": {
        "type": "Point",
        "coordinates": [
          8.6903287,
          49.3803786
        ]
      },
      "id": "node/7435604415"
    },
    {
      "type": "Feature",
      "properties": {
        "@id": "node/7438510124",
        "addr:city": "Heidelberg",
        "addr:housenumber": "14",
        "addr:postcode": "69115",
        "addr:street": "Galileistraße",
        "brand": "Aldi Süd",
        "brand:wikidata": "Q41171672",
        "brand:wikipedia": "en:Aldi",
        "check_date:opening_hours": "2022-02-11",
        "name": "Aldi Süd",
        "opening_hours": "Mo-Sa 08:00-21:00",
        "payment:cash": "yes",
        "payment:credit_cards": "yes",
        "payment:debit_cards": "yes",
        "shop": "supermarket",
        "wheelchair": "yes"
      },
      "geometry": {
        "type": "Point",
        "coordinates": [
          8.6670799,
          49.4041613
        ]
      },
      "id": "node/7438510124"
    },
    {
      "type": "Feature",
      "properties": {
        "@id": "node/7508594589",
        "name": "Friseursalon Arlet",
        "shop": "hairdresser"
      },
      "geometry": {
        "type": "Point",
        "coordinates": [
          8.689238,
          49.3812306
        ]
      },
      "id": "node/7508594589"
    },
    {
      "type": "Feature",
      "properties": {
        "@id": "node/7519431011",
        "brand": "New Yorker",
        "brand:wikidata": "Q706421",
        "brand:wikipedia": "en:New Yorker (clothing)",
        "level": "1",
        "name": "New Yorker",
        "shop": "clothes"
      },
      "geometry": {
        "type": "Point",
        "coordinates": [
          8.6853757,
          49.366756
        ]
      },
      "id": "node/7519431011"
    },
    {
      "type": "Feature",
      "properties": {
        "@id": "node/7519431012",
        "brand": "Takko",
        "brand:wikidata": "Q1371302",
        "brand:wikipedia": "de:Takko",
        "level": "1",
        "name": "Takko",
        "shop": "clothes"
      },
      "geometry": {
        "type": "Point",
        "coordinates": [
          8.6859336,
          49.3666006
        ]
      },
      "id": "node/7519431012"
    },
    {
      "type": "Feature",
      "properties": {
        "@id": "node/7519431013",
        "brand": "KiK",
        "brand:wikidata": "Q883965",
        "brand:wikipedia": "de:KiK",
        "level": "1",
        "name": "KiK",
        "shop": "clothes"
      },
      "geometry": {
        "type": "Point",
        "coordinates": [
          8.6859389,
          49.3665202
        ]
      },
      "id": "node/7519431013"
    },
    {
      "type": "Feature",
      "properties": {
        "@id": "node/7519431014",
        "brand": "mister*lady",
        "brand:wikidata": "Q18640136",
        "brand:wikipedia": "de:Mister*lady",
        "level": "1",
        "name": "mister*lady",
        "shop": "clothes"
      },
      "geometry": {
        "type": "Point",
        "coordinates": [
          8.6861026,
          49.3669674
        ]
      },
      "id": "node/7519431014"
    },
    {
      "type": "Feature",
      "properties": {
        "@id": "node/7548078528",
        "addr:city": "Heidelberg",
        "addr:housenumber": "60a",
        "addr:postcode": "69115",
        "addr:street": "Langer Anger",
        "female": "yes",
        "male": "yes",
        "name": "Lizbeth M. Sánchez Friseure",
        "opening_hours": "Mo-Fr 10:00-20:00; Sa 10:00-15:00; PH off",
        "phone": "+49 6221 4357490",
        "shop": "hairdresser",
        "unisex": "yes",
        "website": "https://lizbeth-sanchez-friseure.de"
      },
      "geometry": {
        "type": "Point",
        "coordinates": [
          8.6654562,
          49.4030266
        ]
      },
      "id": "node/7548078528"
    },
    {
      "type": "Feature",
      "properties": {
        "@id": "node/7557216304",
        "brand": "Tom Tailor",
        "brand:wikidata": "Q571206",
        "brand:wikipedia": "en:Tom Tailor",
        "level": "1",
        "name": "Tom Tailor",
        "shop": "clothes"
      },
      "geometry": {
        "type": "Point",
        "coordinates": [
          8.6854065,
          49.3667008
        ]
      },
      "id": "node/7557216304"
    },
    {
      "type": "Feature",
      "properties": {
        "@id": "node/7557216305",
        "level": "1",
        "name": "Natterer",
        "shop": "clothes"
      },
      "geometry": {
        "type": "Point",
        "coordinates": [
          8.6856674,
          49.3669834
        ]
      },
      "id": "node/7557216305"
    },
    {
      "type": "Feature",
      "properties": {
        "@id": "node/7557216307",
        "level": "1",
        "name": "Genials Friseure",
        "shop": "hairdresser"
      },
      "geometry": {
        "type": "Point",
        "coordinates": [
          8.6854062,
          49.3672741
        ]
      },
      "id": "node/7557216307"
    },
    {
      "type": "Feature",
      "properties": {
        "@id": "node/7572888974",
        "addr:housenumber": "3",
        "addr:street": "Da-Vinci-Straße",
        "name": "HairExpress",
        "opening_hours": "Mo-Sa 09:00-20:00",
        "shop": "hairdresser",
        "unisex": "yes",
        "website": "https://www.hairxpress.de",
        "wheelchair": "yes"
      },
      "geometry": {
        "type": "Point",
        "coordinates": [
          8.6672156,
          49.4043356
        ]
      },
      "id": "node/7572888974"
    },
    {
      "type": "Feature",
      "properties": {
        "@id": "node/7575294133",
        "addr:city": "Heidelberg",
        "addr:housenumber": "2",
        "addr:postcode": "69126",
        "addr:street": "Franz-Kruckenberg-Straße",
        "name": "Friseur KoKo",
        "shop": "hairdresser",
        "website": "http://www.friseur-koko.de/"
      },
      "geometry": {
        "type": "Point",
        "coordinates": [
          8.6807905,
          49.3798497
        ]
      },
      "id": "node/7575294133"
    },
    {
      "type": "Feature",
      "properties": {
        "@id": "node/8243864133",
        "addr:housenumber": "23",
        "addr:street": "Bahnhofstraße",
        "name": "Starcut",
        "shop": "hairdresser",
        "unisex": "yes"
      },
      "geometry": {
        "type": "Point",
        "coordinates": [
          8.6897765,
          49.4057842
        ]
      },
      "id": "node/8243864133"
    },
    {
      "type": "Feature",
      "properties": {
        "@id": "node/8243864137",
        "name": "Ciccarelli",
        "opening_hours": "Tu-Fr 09:00-19:00; Sa 09:00-16:00",
        "shop": "hairdresser"
      },
      "geometry": {
        "type": "Point",
        "coordinates": [
          8.6784375,
          49.4077433
        ]
      },
      "id": "node/8243864137"
    },
    {
      "type": "Feature",
      "properties": {
        "@id": "node/8510251512",
        "name": "deli2go",
        "opening_hours": "Mo-Fr 06:00-23:00; Sa 06:00-14:00",
        "shop": "convenience"
      },
      "geometry": {
        "type": "Point",
        "coordinates": [
          8.6900221,
          49.3988741
        ]
      },
      "id": "node/8510251512"
    },
    {
      "type": "Feature",
      "properties": {
        "@id": "node/8575641762",
        "addr:city": "Heidelberg",
        "addr:housenumber": "72",
        "addr:postcode": "69121",
        "addr:street": "Dossenheimer Landstraße",
        "email": "info@houseofextensions.de",
        "name": "House of Extensions",
        "opening_hours": "Mo-Th 10:00-18:00; Fr 10:00-20:00; Sa 10:00-15:00; Su, PH off",
        "phone": "+49 6221 3615740",
        "shop": "hairdresser",
        "website": "http://houseofextensions.de/"
      },
      "geometry": {
        "type": "Point",
        "coordinates": [
          8.68265,
          49.4306517
        ]
      },
      "id": "node/8575641762"
    },
    {
      "type": "Feature",
      "properties": {
        "@id": "node/8589560795",
        "addr:housenumber": "13",
        "addr:street": "Mühltalstraße",
        "name": "Corinna Mücke Hairstylist",
        "opening_hours:signed": "no",
        "operator": "Corinna Mücke",
        "phone": "+49 6221 7255260",
        "shop": "hairdresser"
      },
      "geometry": {
        "type": "Point",
        "coordinates": [
          8.6873342,
          49.4287408
        ]
      },
      "id": "node/8589560795"
    },
    {
      "type": "Feature",
      "properties": {
        "@id": "node/8777194890",
        "brand": "Carglass",
        "brand:wikidata": "Q1035997",
        "brand:wikipedia": "de:Carglass",
        "name": "Carglass",
        "shop": "car_repair"
      },
      "geometry": {
        "type": "Point",
        "coordinates": [
          8.6400942,
          49.4096992
        ]
      },
      "id": "node/8777194890"
    },
    {
      "type": "Feature",
      "properties": {
        "@id": "node/8859412944",
        "addr:city": "Heidelberg",
        "addr:housenumber": "9",
        "addr:street": "Ladenburger Straße",
        "name": "Friseur Hahn",
        "opening_hours": "Tu-Fr 08:00-20:15; Sa 07:00-17:15",
        "phone": "+49 6221 413161",
        "shop": "hairdresser"
      },
      "geometry": {
        "type": "Point",
        "coordinates": [
          8.6913783,
          49.4145815
        ]
      },
      "id": "node/8859412944"
    },
    {
      "type": "Feature",
      "properties": {
        "@id": "node/8859412945",
        "name": "HOT!",
        "shop": "clothes"
      },
      "geometry": {
        "type": "Point",
        "coordinates": [
          8.6915714,
          49.4145963
        ]
      },
      "id": "node/8859412945"
    },
    {
      "type": "Feature",
      "properties": {
        "@id": "node/8859412947",
        "name": "Marryandyou",
        "shop": "clothes"
      },
      "geometry": {
        "type": "Point",
        "coordinates": [
          8.6917551,
          49.4147342
        ]
      },
      "id": "node/8859412947"
    },
    {
      "type": "Feature",
      "properties": {
        "@id": "node/8859412950",
        "name": "Bridal Boutique",
        "shop": "clothes"
      },
      "geometry": {
        "type": "Point",
        "coordinates": [
          8.6895638,
          49.4143703
        ]
      },
      "id": "node/8859412950"
    },
    {
      "type": "Feature",
      "properties": {
        "@id": "node/8923394217",
        "name": "Feinkost Ramzami",
        "shop": "convenience"
      },
      "geometry": {
        "type": "Point",
        "coordinates": [
          8.6902779,
          49.3814493
        ]
      },
      "id": "node/8923394217"
    },
    {
      "type": "Feature",
      "properties": {
        "@id": "node/9014592763",
        "name": "Salon Meys",
        "shop": "hairdresser",
        "website": "https://www.salonmeys.de/"
      },
      "geometry": {
        "type": "Point",
        "coordinates": [
          8.6763855,
          49.3784968
        ]
      },
      "id": "node/9014592763"
    },
    {
      "type": "Feature",
      "properties": {
        "@id": "node/9216218070",
        "addr:housenumber": "28",
        "addr:street": "Untere Straße",
        "contact:instagram": "https://www.instagram.com/hundundhandwerk",
        "name": "Hund und Handwerk",
        "opening_hours": "Mo-Sa 11:00-19:00",
        "shop": "clothes",
        "website": "http://hund-und-handwerk.de"
      },
      "geometry": {
        "type": "Point",
        "coordinates": [
          8.708452,
          49.412208
        ]
      },
      "id": "node/9216218070"
    },
    {
      "type": "Feature",
      "properties": {
        "@id": "node/9407595757",
        "addr:city": "Heidelberg",
        "addr:housenumber": "60",
        "addr:postcode": "69121",
        "addr:street": "Dossenheimer Landstraße",
        "level": "0",
        "name": "Heerlijk Bier Heidelberg",
        "opening_hours": "Fr-Sa",
        "payment:cards": "yes",
        "payment:cash": "yes",
        "phone": "+49 6221 6510829",
        "shop": "convenience",
        "website": "https://www.heerlijk-bier.de/",
        "wheelchair": "no"
      },
      "geometry": {
        "type": "Point",
        "coordinates": [
          8.6826604,
          49.4298914
        ]
      },
      "id": "node/9407595757"
    },
    {
      "type": "Feature",
      "properties": {
        "@id": "node/9407595758",
        "addr:city": "Heidelberg",
        "addr:housenumber": "80",
        "addr:postcode": "69121",
        "addr:street": "Dossenheimer Landstraße",
        "name": "Biosweed CBD Shop Heidelberg",
        "phone": "+4962217177075",
        "shop": "convenience",
        "website": "https://cbdshopbiosweed.de/"
      },
      "geometry": {
        "type": "Point",
        "coordinates": [
          8.6826899,
          49.4311572
        ]
      },
      "id": "node/9407595758"
    },
    {
      "type": "Feature",
      "properties": {
        "@id": "node/9474209612",
        "addr:housenumber": "15",
        "addr:street": "Haberstraße",
        "name": "Istanbul Supermarkt",
        "shop": "supermarket",
        "website": "http://istanbul-hd.de"
      },
      "geometry": {
        "type": "Point",
        "coordinates": [
          8.6809742,
          49.3648122
        ]
      },
      "id": "node/9474209612"
    },
    {
      "type": "Feature",
      "properties": {
        "@id": "node/9709055280",
        "shop": "hairdresser"
      },
      "geometry": {
        "type": "Point",
        "coordinates": [
          8.6915468,
          49.406838
        ]
      },
      "id": "node/9709055280"
    },
    {
      "type": "Feature",
      "properties": {
        "@id": "node/9951041841",
        "name": "Salon Carmen",
        "shop": "hairdresser"
      },
      "geometry": {
        "type": "Point",
        "coordinates": [
          8.6471948,
          49.3998858
        ]
      },
      "id": "node/9951041841"
    }
  ]
}